CORRECTED ACCELEROGRAM                              CHAN 1
UNCORRECTED ACCELEROGRAM DATA              PROCESSED: 05/09/2011
SUR DE PERU 2001
01/01/1980 0:00:00 (GMT)                (ORIGIN: 01/01/1980 0:00:00 GMT)
                                   TRIGGER TIME: 1/1/1980 0:00:00.000 GMT
STATION NO.          0.000N    0.000E  SMA-1     S/N  500 (3  CHNS OF 3  AT STA)
ARICA COSTANERA S/N 5004
CHAN  1:  L       (STA CHN:  1)               
UNIVERSIDAD DE CHILE - RENADIC
HYPOCENTER:   0.000N    0.000E  H=   0.0KM   ML= 0.00
INSTR PERIOD = 0.0390 SEC,  DAMPING =0.6000,  SENSITIVITY =1.000 VDC/G
                        RECORD LENGTH = 76.180 SEC
                                     UNCOR MAX  = -0.334 G, AT  34.225 SEC
RMS ACCEL OF (UNCOR) RECORD  = 0.035 G
ACCELEROGRAM BANDPASS FILTERED WITH RAMPS AT 0.150-0.250 AND 23.00-25.00 CYC/SEC
 15236 POINTS OF INSTRUMENT- AND BASELINE-CORRECTED ACCEL, VELOC, AND DISPL DATA
AT EQUALLY-SPACED INTERVALS OF   0.005  SEC.
PEAK ACCELERATION =   329.650    CM/SEC/SEC  AT   34.215   SEC.
PEAK   VELOCITY   =    25.101      CM/SEC    AT   30.165   SEC.
PEAK DISPLACEMENT =     6.967        CM      AT   29.925   SEC.
INITIAL VELOCITY  =     0.124   CM/SEC;   INITIAL DISPLACEMENT =   -0.005   CM
UNIVERSIDAD DE CHILE - RENADIC



    1    1    1    3    3    0    1    0    0    0    0    0    0    0    0    0
    0    0    0    0    0    0    0    0    0    0    015236   16   24   30    0
    0    0    0    0    0    0    0    0    0    0    0    0    0    0    0    0
    0    0152361523615236    1   10   10    0    0   30   24   10   10    015236
    015236    0    0    0    0    0    0    0    0    0    0    0    0    0    0
    0    0    0    0    0    0    0    0    0    0    0    0    0    0    0    0
    0    0    0    0
     0.039     0.600    76.180     0.035     0.100     1.000    -0.334    34.225
    25.641     0.000     0.000     0.000     5.000     0.000     5.000     5.000
     0.000     0.000     0.000     0.000     0.000     0.000     0.000     0.000
     0.000     0.000     0.000     0.000     0.000     0.000     0.000     0.000
     0.000     0.000     0.000     0.000     0.000     0.000     0.000     0.000
     0.000     0.000     0.000     0.000     0.000     0.000     0.000     0.000
     0.000     0.000     0.000    98.067     0.005    76.180     0.000     0.000
     0.000    25.000     2.000    76.180     0.005     0.250     0.100     0.000
    34.215   329.650    30.165    25.101    29.925     6.967     0.124     0.250
    23.000     0.005     0.005    -0.005     0.000     0.000     0.000     0.000
     0.000     0.000     0.000     0.000     0.000     0.000     0.000     0.000
     0.000     0.000     0.000     0.000     0.000     0.000     0.000     0.000
     0.000     0.000     0.000     0.000
15236 POINTS OF ACCEL DATA EQUALLY SPACED AT 0.005 SEC.  (UNITS: CM/SEC/SEC)
[...]
    57.439    55.699    54.408    53.706    53.508    53.508    53.329    52.407
    50.594    47.991    45.035    42.387    40.735    40.573    42.045    44.902
    48.641    52.400    55.570    57.674    58.518    58.182    56.950    55.207
    53.359    51.774    50.832    50.638    51.435    53.301    56.192    59.922
    64.163    68.484    72.423    75.575    77.746    78.737    78.766    78.149
    77.285    76.538    76.132    76.068    76.111    75.834    74.806    72.471
    68.690    63.567    57.524    51.216    45.378    40.652    37.442    35.844
    35.725    36.561    37.937    39.408    40.622    41.336    41.395    40.697
    39.188    36.872    33.907    30.373    26.625    22.984    19.718    16.967
    14.711    12.801    11.029     9.224     7.366     5.367     3.376     1.474
    -0.321    -2.063    -3.835    -5.680    -7.547    -9.277   -10.614   -11.522
   -11.950   -12.091   -12.281   -12.877   -14.109   -15.962   -18.145   -20.164
   -21.412   -21.557   -20.355   -17.924   -14.655   -11.122    -7.965    -5.771
    -4.995    -5.895    -8.444   -12.504   -17.548   -22.914   -27.876   -31.800
   -34.306   -35.367   -35.309   -34.696   -34.087   -34.014   -34.567   -35.561
   -36.597   -37.248   -37.241   -36.571   -35.495   -34.433   -33.780   -33.950
   -35.074   -37.183   -40.217   -44.076   -48.619   -53.615   -58.692   -63.314
   -66.811   -68.660   -68.443   -66.136   -62.130   -57.165   -52.168   -48.043
   -45.488   -44.871   -46.178   -49.168   -53.255   -57.714   -61.719   -64.436
   -65.139   -63.345   -58.947   -52.283   -44.070   -35.355   -27.100   -20.032
   -14.426   -10.064    -6.349    -2.543     1.977     7.524    14.061    21.175
    28.374    35.160    41.164    46.178    50.101    52.868    54.393    54.561
    53.288    50.521    46.394    41.179    35.283    29.201    23.461    18.572
    14.974    12.984    12.744    14.113    16.722    19.949    23.040    25.261
    26.055    25.156    22.607    18.684    13.763     8.155     2.067    -4.424
   -11.287   -18.438   -25.664   -32.633   -38.966   -44.348   -48.627   -51.859
   -54.254   -56.108   -57.709   -59.289   -61.012   -63.006   -65.377   -68.193
   -71.429   -74.894   -78.221   -80.907   -82.463   -82.575   -81.246   -78.814
   -75.843   -72.895   -70.291   -67.919   -65.256   -61.502   -55.842   -47.723
   -37.023   -24.070    -9.509     5.898    21.446    36.631    51.060    64.413
    76.351    86.496    94.492   100.118   103.375   104.491   103.805   101.670
    98.192    93.243    86.517    77.727    66.836    54.224    40.699    27.346
    15.232     5.219    -2.344    -7.550   -10.818   -12.654   -13.443   -13.327
   -12.224    -9.949    -6.405    -1.594     4.188    10.505    16.849    22.732
    27.729    31.487    33.710    34.178    32.783    29.736    25.451    20.653
    16.224    12.978    11.411    11.516    12.740    14.118    14.518    13.112
     9.435     3.644    -3.582   -11.260   -18.386   -24.181   -28.231   -30.486
   -31.198   -30.614   -29.104   -26.956   -24.454   -21.947   -19.901   -18.877
   -19.438   -21.999   -26.720   -33.247   -40.997   -49.117   -56.733   -63.173
   -68.117   -71.651   -74.189   -76.310   -78.610   -81.351   -84.677   -88.447
   -92.400   -96.292  -100.017  -103.660  -107.472  -111.776  -116.899  -122.862
  -129.624  -136.868  -144.095  -150.688  -155.997  -159.417  -160.469  -158.873
  -154.665  -148.009  -139.529  -130.024  -120.423  -111.638  -104.429   -99.307
   -96.485   -95.893   -97.299  -100.132  -103.898  -107.979  -111.719  -114.471
  -115.668  -114.914  -112.088  -107.385  -101.359   -94.544   -87.650   -81.120
   -75.069   -69.271   -63.266   -56.561   -48.824   -40.032   -30.558   -20.816
   -11.485    -3.078     4.110    10.023    14.794    18.654    21.859    24.661
    27.262    30.124    33.577    38.054    43.936    51.445    60.574    71.079
    82.549    94.511   106.456   118.153   129.183   139.120   147.369   153.153
   155.608   153.978   147.839   137.275   122.845   105.751    87.180    68.321
    50.081    33.003    17.320     3.091    -9.646   -20.794   -30.280   -37.854
   -43.628   -47.844   -50.922   -53.359   -55.604   -57.953   -60.523   -63.286
   -66.211   -69.020   -71.623   -73.768   -75.062   -74.971   -72.914   -68.451
   -61.488   -52.419   -42.193   -31.830   -22.550   -15.134    -9.766    -5.989
    -2.890     0.574     5.207    11.310    18.537    26.310    33.637    39.700
    44.005    46.473    47.396    47.311    46.845    46.590    46.961    48.456
    51.205    55.257    60.504    66.691    73.447    80.339    86.936    92.841
    97.617   101.044   102.636   101.931    98.488    92.031    82.608    70.718
    57.315    43.673    31.046    20.666    13.051     8.203     5.614     4.485
     4.006     3.589     2.990     2.284     1.681     1.668     2.460     4.253
     7.170    11.301    16.713    23.414    31.281    40.002    49.000    57.798
    65.717    72.318    77.411    81.064    83.503    84.968    85.578    85.262
    83.723    80.828    76.337    70.309    63.076    55.195    47.335    40.124
    34.040    29.354    26.079    24.308    23.873    24.667    26.573    29.436
    33.015    36.963    40.851    44.218    46.587    47.777    47.512    45.660
    42.100    36.696    29.303    19.855     8.478    -4.404   -18.104   -31.499
   -43.589   -53.470   -60.599   -64.887   -66.664   -66.538   -65.194   -63.240
   -61.182   -59.194   -57.542   -56.391   -55.854   -55.915   -56.325   -56.551
   -55.814   -53.239   -48.135   -39.956   -28.752   -14.918     0.885    17.892
    35.346    52.533    68.738    83.201    95.086   103.836   109.047   110.875
   110.039   107.690   105.123   103.431   103.250   104.702   107.485   111.339
   115.968   121.310   127.363   133.963   140.623   146.580   151.079   153.792
   155.079   156.161   158.395   162.701   168.745   174.532   176.643   171.148
   154.921   126.892    88.670    44.510    -0.017   -39.420   -69.837   -89.954
  -101.035  -106.137  -108.868  -112.188  -117.723  -125.529  -134.785  -144.318
  -153.201  -160.964  -167.438  -172.430  -175.458  -175.739  -172.488  -165.180
  -154.062  -140.065  -124.569  -108.936   -94.044   -80.039   -66.397   -52.245
   -36.824   -19.718    -1.152    18.228    37.576    56.106    73.240    88.619
   102.014   113.232   122.050   128.359   132.081   133.307   132.226   129.011
   123.705   116.183   106.242    93.792    79.049    62.720    45.826    29.533
    14.793     2.046    -8.908   -18.808   -28.646   -39.296   -51.224   -64.293
   -77.919   -91.223  -103.316  -113.515  -121.455  -127.085  -130.588  -132.293
  -132.605  -131.926  -130.667  -129.168  -127.640  -126.109  -124.390  -122.119
  -118.844  -114.139  -107.711   -99.439   -89.385   -77.722   -64.681   -50.515
   -35.504   -19.978    -4.342    10.939    25.399    38.626    50.315    60.251
    68.255    74.105    77.510    78.165    75.904    70.904    63.844    55.895
    48.575    43.358    41.245    42.391    45.960    50.280    53.301    53.216
    49.067    41.069    30.679    20.197    12.150     8.615    10.695    18.303
    30.292    44.867    60.112    74.380    86.648    96.477   103.882   109.099
   112.402   114.019   114.142   112.995   110.895   108.136   105.027   101.692
    98.040    93.798    88.653    82.434    75.254    67.542    59.965    53.111
    47.405    42.840    38.976    35.074    30.337    24.181    16.444     7.463
    -1.950   -10.794   -17.921   -22.361   -23.460   -20.974   -15.099    -6.434
     4.100    15.400    26.374    35.976    43.554    48.798    51.778    52.871
    52.645    51.733    50.739    50.192    50.565    52.117    55.106    59.579
    65.362    72.029    78.926    85.277    90.326    93.486    94.478    93.165
    89.738    84.434    77.471    69.024    59.259    48.431    36.971    25.501
    14.812     5.507    -1.895    -7.293   -10.994   -13.629   -15.980   -18.781
   -22.572   -27.640   -34.008   -41.731   -50.677   -60.769   -71.899   -83.842
   -96.177  -108.252  -119.244  -128.293  -134.626  -137.944  -138.188  -135.761
  -131.383  -125.934  -120.277  -115.102  -110.818  -107.517  -104.933  -102.752
  -100.371   -97.257   -93.014   -87.475   -80.766   -73.295   -65.698   -58.719
   -53.018   -49.277   -47.734   -48.364   -50.830   -54.540   -58.746   -62.672
   -65.643   -67.202   -67.114   -65.651   -63.158   -60.215   -57.435   -55.328
   -54.191   -54.060   -54.722   -55.794   -56.748   -57.279   -56.962   -55.554
   -52.930   -49.084   -44.127   -38.302   -31.976   -25.603   -19.573   -14.384
   -10.120    -6.668    -3.680    -0.676     2.802     7.043    12.113    17.888
    24.255    30.971    38.156    45.948    54.383    63.135    71.314    77.449
    79.709    76.343    66.285    49.315    26.680     0.656   -25.853   -49.962
   -69.429   -83.069   -90.844   -93.642   -92.787   -89.893   -86.097   -82.246
   -78.894   -76.475   -75.442   -76.295   -79.472   -85.152   -93.004  -102.427
  -112.221  -121.152  -128.217  -132.929  -135.454  -136.527  -137.194  -138.456
  -140.872  -144.677  -149.357  -154.158  -158.332  -161.415  -163.383  -164.583
  -165.474  -166.282  -166.620  -165.678  -161.926  -153.809  -140.182  -120.759
   -96.337   -68.687   -40.146   -13.050    10.883    30.583    46.097    58.032
    67.225    74.369    79.816    83.618    85.739    86.314    85.888    85.085
    84.852    85.873    88.411    92.247    96.811   101.449   105.714   109.530
   113.260   117.226   121.891   127.344   133.294   139.149   144.214   147.915
   149.950   150.321   149.336   147.189   144.300   140.978   137.521   134.257
   131.551   129.736   129.000   129.252   130.136   130.792   130.455   128.396
   124.216   117.961   110.102   101.376    92.562    84.268    76.873    70.246
    64.259    58.658    53.259    48.010    42.960    38.176    33.646    29.214
    24.665    19.538    13.641     6.877    -0.654    -8.710   -17.025   -25.444
   -34.016   -42.992   -52.675   -63.506   -75.509   -88.440  -101.710  -114.503
  -125.966  -135.421  -142.515  -147.275  -149.980  -151.255  -151.535  -151.161
  -150.248  -148.676  -146.137  -142.194  -136.343  -128.063  -116.828  -102.435
   -84.785   -64.247   -41.673   -18.356     4.145    24.306    40.968    53.607
    62.481    68.302    72.275    75.526    78.857    82.620    86.789    91.175
    95.690   100.491   106.026   112.642   120.628   129.797   139.489   148.728
   156.530   162.244   165.758   167.499   168.252   168.618   168.957   169.020
   168.064   165.128   159.422   150.673   139.297   126.351   113.314   101.552
    92.222    85.849    82.280    80.750    80.069    78.876    75.914    70.285
    61.678    50.318    37.159    23.551    10.962     0.619    -6.837   -11.536
   -14.372   -16.788   -20.374   -26.631   -36.449   -50.094   -67.167   -86.708
  -107.335  -127.371  -144.969  -158.251  -165.503  -165.593  -158.118  -143.782
  -124.427  -102.826   -82.213   -65.654   -55.448   -52.698   -57.175   -67.601
   -81.899   -97.756  -112.998  -125.822  -134.897  -139.379  -138.917  -133.685
  -124.390  -112.330   -99.103   -86.405   -75.651   -67.647   -62.439   -59.373
   -57.376   -55.337   -52.445   -48.446   -43.535   -38.252   -33.223   -28.967
   -25.811   -23.925   -23.411   -24.385   -26.953   -31.192   -36.968   -43.930
   -51.528   -59.144   -66.268   -72.636   -78.284   -83.476   -88.541   -93.725
   -99.034  -104.231  -108.904  -112.589  -114.899  -115.612  -114.705  -112.338
  -108.821  -104.580  -100.115   -95.965   -92.653   -90.609   -90.089   -91.114
   -93.445   -96.606   -99.942  -102.696  -104.100  -103.453  -100.195   -93.988
   -84.783   -72.862   -58.816   -43.456   -27.656   -12.133     2.669    16.682
    30.172    43.624    57.576    72.490    88.683   106.315   125.386   145.795
   167.219   189.134   210.813   231.432   250.265   266.899   281.370   294.090
   305.538   315.879   324.451   329.650   329.136   320.452   301.873   273.188
   236.099   194.039   151.404   112.564    80.671    57.081    41.254    31.245
    24.546    18.927    12.990     6.289    -0.963    -8.235   -15.218   -21.870
   -28.345   -34.761   -41.012   -46.755   -51.597   -55.386   -58.458   -61.532
   -65.660   -71.735   -80.164   -90.709  -102.579  -114.736  -126.243  -136.473
  -145.129  -151.874  -156.245  -157.340  -153.935  -144.830  -129.320  -107.609
   -80.977   -51.613   -22.249     4.497    26.293    41.442    48.853    47.976
    38.799    21.983    -0.913   -27.294   -53.684   -76.021   -90.688   -95.162
   -88.659   -72.249   -48.427   -20.292     9.346    38.581    66.494    92.988
   117.912   140.747   160.434   175.698   185.656   190.374   191.040   189.580
   187.785   186.588   185.180   181.301   171.987   154.813   129.086    96.492
    60.881    27.246     0.197   -17.201   -24.529   -23.741   -18.392   -12.430
    -9.059   -10.094   -15.920   -25.954   -39.346   -55.247   -73.287   -93.147
  -114.242  -135.459  -155.178  -171.618  -183.366  -189.829  -191.468  -189.353
  -185.003  -179.559  -173.410  -166.130  -156.773  -144.428  -128.779  -110.444
   -91.030   -72.516   -57.041   -46.054   -39.966   -38.033   -38.583   -39.463
   -38.603   -34.512   -26.663   -15.333    -1.829    12.093    24.580    34.086
    39.685    41.214    39.264    35.000    29.846    25.442    23.003    23.391
    26.959    33.548    42.551    53.032    63.886    74.017    82.447    88.736
    92.656    94.445    94.626    93.817    92.534    91.032    89.250    86.864
    83.356    78.450    71.833    63.476    53.552    42.361    30.274    17.710
     5.158    -6.782   -17.474   -26.033   -31.885   -34.663   -34.423   -31.690
   -27.381   -22.621   -18.516   -15.943   -15.498   -17.196   -20.939   -26.328
   -32.819   -39.776   -46.522   -52.387   -56.795   -59.356   -60.013   -58.794
   -56.154   -52.555   -48.357   -43.666   -38.287   -31.796   -23.722   -13.780
    -2.134    10.796    23.976    36.226    46.404    53.666    57.639    58.489
    56.864    53.742    50.161    47.274    45.771    46.031    48.028    51.384
    55.508    59.781    63.744    67.241    70.395    73.801    77.939    83.205
    89.620    96.708   103.509   108.762   111.199   109.877   104.399    95.312
    83.684    71.151    59.507    50.326    44.628    42.682    43.996    47.485
    51.706    55.476    57.803    58.333    57.309    55.430    53.593    52.617
    53.026    54.949    58.106    62.192    66.672    71.158    75.382    79.145
    82.212    84.235    84.743    83.246    79.339    73.131    64.987    55.754
    46.548    38.497    32.475    28.913    27.737    28.460    30.301    32.634
    34.782    36.307    36.911    36.349    34.360    30.673    25.081    17.560
     8.316    -1.990   -12.669   -22.974   -32.366   -40.664   -48.065   -55.034
   -62.096   -69.628   -77.773   -86.233   -94.705  -102.858  -110.539  -117.835
  -125.006  -132.331  -139.958  -147.805  -155.646  -163.022  -169.685  -175.471
  -180.306  -184.047  -186.310  -186.374  -183.274  -176.082  -164.354  -148.296
  -129.189  -109.041   -90.176   -74.641   -63.670   -57.412   -55.027   -55.094
   -56.215   -57.340   -58.267   -59.389   -61.412   -64.929   -70.117   -76.638
   -83.796   -90.822   -97.190  -102.585  -107.088  -110.814  -113.743  -115.595
  -115.888  -114.109  -109.947  -103.445   -95.045   -85.316   -74.964   -64.518
   -54.299   -44.454   -35.052   -26.163   -17.844   -10.067    -2.648     4.899
    13.069    22.284    32.628    43.712    54.750    64.824    73.267    79.963
    85.419    90.652    96.596   103.713   111.634   119.159   124.606   126.390
   123.602   116.353   105.728    93.499    81.430    70.850    62.361    55.876
    50.922    47.005    43.867    41.513    39.997    39.210    38.562    37.072
    33.600    27.253    17.768     5.690    -7.719   -20.833   -32.145   -40.623
   -46.001   -48.671   -49.445   -49.218   -48.678   -48.168   -47.690   -47.034
   -45.921   -44.073   -41.295   -37.427   -32.330   -25.903   -18.132    -9.168
     0.635    10.745    20.531    29.421    36.995    43.082    47.765    51.317
    54.114    56.546    58.953    61.579    64.543    67.807    71.142    74.111
    76.108    76.454    74.569    70.150    63.331    54.729    45.373    36.481
    29.202    24.329    22.121    22.251    23.914    26.034    27.530    27.541
    25.578    21.514    15.557     8.072    -0.579   -10.151   -20.561   -31.840
   -44.015   -56.964   -70.285   -83.311   -95.094  -104.604  -110.897  -113.277
  -111.380  -105.157   -94.785   -80.558   -62.803   -41.979   -18.686     6.121
    31.056    54.343    74.034    88.375    96.217    97.365    92.730    84.130
    74.045    65.010    59.098    57.502    60.348    66.760    75.139    83.566
    90.259    93.814    93.577    89.601    82.594    73.730    64.409    56.006
    49.645    46.048    45.480    47.636    51.884    57.260    62.635    66.859
    68.896    67.956    63.599    55.810    45.046    32.039    17.849     3.524
   -10.077   -22.449   -33.470   -43.308   -52.200   -60.194   -66.909   -71.637
