CORRECTED ACCELEROGRAM                              CHAN 1
UNCORRECTED ACCELEROGRAM DATA              PROCESSED: 05/10/2011
SUR DE PERU 2001
06/23/2001 20:34:07 (GMT)               (ORIGIN: 06/23/2001 20:34:07 GMT)
                                   TRIGGER TIME: 6/23/2001 20:34:47.000 GMT
STATION NO.          0.000N    0.000E  ETNA      S/N  815 (4  CHNS OF 4  AT STA)
ARICA  S/N 815
CHAN  1:  NS      (STA CHN:  1)               
UNIVERSIDAD DE CHILE - RENADIC
HYPOCENTER:   0.000N    0.000E  H=   0.0KM   ML= 0.00
INSTR PERIOD = 0.0200 SEC,  DAMPING =0.6500,  SENSITIVITY =2.508 VDC/G
                        RECORD LENGTH =157.000 SEC
                                     UNCOR MAX  = -0.215 G, AT  33.240 SEC
RMS ACCEL OF (UNCOR) RECORD  = 0.020 G
ACCELEROGRAM BANDPASS FILTERED WITH RAMPS AT 0.150-0.250 AND 23.00-25.00 CYC/SEC
 31400 POINTS OF INSTRUMENT- AND BASELINE-CORRECTED ACCEL, VELOC, AND DISPL DATA
AT EQUALLY-SPACED INTERVALS OF   0.005  SEC.
PEAK ACCELERATION =   208.438    CM/SEC/SEC  AT   73.230   SEC.
PEAK   VELOCITY   =    18.382      CM/SEC    AT   70.180   SEC.
PEAK DISPLACEMENT =     5.809        CM      AT   70.330   SEC.
INITIAL VELOCITY  =    -0.002   CM/SEC;   INITIAL DISPLACEMENT =    0.000   CM
UNIVERSIDAD DE CHILE - RENADIC



    1    1    1    4    4    0    1    0    0    0    0    0    0    0    0    0
    0    0    0    0    0    0    0    0    0    0    031400   16   14   30    0
    0    0    0    0    0    0    0    0    0    0    0    0    0    0    0    0
    0    0314003140031400    1   10   10    0    0   30   14   10   10    031400
    031400    0    0    0    0    0    0    0    0    0    0    0    0    0    0
    0    0    0    0    0    0    0    0    0    0    0    0    0    0    0    0
    0    0    0    0
     0.020     0.650   157.000     0.020     0.100     2.508    -0.215    33.240
    50.000     0.000     0.000     0.000     5.000     0.000     5.000     5.000
     0.000     0.000     0.000     0.000     0.000     0.000     0.000     0.000
     0.000     0.000     0.000     0.000     0.000     0.000     0.000     0.000
     0.000     0.000     0.000     0.000     0.000     0.000     0.000     0.000
     0.000     0.000     0.000     0.000     0.000     0.000     0.000     0.000
     0.000     0.000     0.000    98.067     0.005   157.000     0.000     0.000
     0.000    25.000     2.000   157.000     0.005     0.250     0.100     0.000
    73.230   208.438    70.180    18.382    70.330     5.809    -0.002     0.250
    23.000     0.005     0.005     0.000     0.000     0.000     0.000     0.000
     0.000     0.000     0.000     0.000     0.000     0.000     0.000     0.000
     0.000     0.000     0.000     0.000     0.000     0.000     0.000     0.000
     0.000     0.000     0.000     0.000
31400 POINTS OF ACCEL DATA EQUALLY SPACED AT 0.005 SEC.  (UNITS: CM/SEC/SEC)
[...]
    43.020    53.222    58.958    59.681    55.214    45.926    32.775    17.479
     1.874   -12.280   -23.779   -32.241   -38.091   -42.267   -45.767   -49.215
   -52.684   -55.491   -56.849   -56.033   -52.766   -47.368   -40.636   -33.555
   -26.953   -21.251   -16.453   -12.010    -7.418    -2.205     3.843    10.628
    17.775    24.703    30.699    34.994    36.788    35.650    31.326    24.185
    15.254     6.131    -1.320    -5.444    -5.303    -1.026     6.071    14.059
    20.591    23.841    22.964    18.291    11.123     3.223    -3.813    -9.044
   -12.449   -14.511   -16.191   -18.187   -20.652   -23.110   -24.653   -24.330
   -21.545   -16.317    -9.368    -1.664     5.534    11.258    14.993    16.732
    16.877    16.065    14.977    14.212    14.148    15.169    17.272    20.296
    23.847    27.309    29.913    30.888    29.632    25.884    19.752    11.936
     3.210    -5.547   -13.626   -20.636   -26.528   -31.492   -35.786   -39.555
   -42.790   -45.083   -46.117   -45.608   -43.552   -40.334   -36.728   -33.766
   -32.513   -33.823   -38.193   -45.419   -54.974   -65.900   -77.074   -87.421
   -96.095  -102.575  -106.670  -108.458  -108.242  -106.212  -102.727   -98.045
   -92.389   -85.964   -78.965   -71.581   -63.976   -56.284   -48.662   -41.093
   -33.751   -26.794   -20.413   -14.782    -9.991    -5.984    -2.537     0.701
     4.050     7.887    12.208    16.789    21.173    24.773    27.022    27.495
    25.982    22.480    17.093    10.173     1.984    -7.073   -16.460   -25.460
   -33.214   -38.844   -41.659   -41.376   -38.311   -33.177   -27.196   -21.570
   -17.175   -14.290   -12.519   -10.953    -8.500    -4.299     1.925     9.909
    18.689    27.078    33.977    38.673    40.965    41.104    39.584    36.919
    33.430    29.399    24.905    20.157    15.559    11.716     9.294     8.812
    10.432    13.873    18.435    23.362    27.878    31.555    34.356    36.546
    38.485    40.396    42.224    43.647    44.203    43.680    42.097    39.909
    37.840    36.599    36.546    37.451    38.454    38.258    35.482    29.227
    19.232     6.137    -8.677   -23.425   -36.355   -46.138   -52.097   -54.227
   -53.067   -49.327   -43.821   -37.210   -30.007   -22.659   -15.650    -9.562
    -5.047    -2.709    -2.966    -5.818   -10.947   -17.667   -25.103   -32.371
   -38.723   -43.629   -46.760   -47.919   -46.985   -43.802   -38.340   -30.691
   -21.184   -10.406     0.854    11.758    21.612    30.028    36.964    42.732
    47.724    52.275    56.485    60.165    62.918    64.293    63.965    61.827
    57.976    52.639    45.959    37.948    28.496    17.532     5.247    -7.713
   -20.199   -30.718   -37.769   -40.230   -37.720   -30.701   -20.343    -8.189
     4.262    15.873    25.984    34.301    40.656    44.801    46.337    44.894
    40.445    33.611    25.758    18.781    14.581    14.412    18.360    25.174
    32.588    38.034    39.498    36.212    28.893    19.452    10.271     3.353
    -0.336    -1.093    -0.150     0.963     1.147     0.227    -0.991    -1.087
     1.329     6.991    15.629    25.956    36.151    44.424    49.602    51.467
    50.743    48.782    47.054    46.651    47.954    50.476    53.116    54.461
    53.233    48.696    40.905    30.739    19.715     9.617     2.073    -1.920
    -2.094     1.027     6.403    12.869    19.529    25.997    32.405    39.201
    46.838    55.386    64.535    73.570    81.623    87.926    91.971    93.501
    92.348    88.257    80.838    69.580    54.317    35.450    14.158    -7.705
   -28.021   -44.989   -57.649   -66.110   -71.343   -74.780   -77.472   -79.723
   -80.937   -79.931   -75.522   -67.131   -55.108   -40.646   -25.284   -10.437
     3.288    16.055    28.548    41.428    54.806    68.003    79.715    88.493
    93.375    94.132    91.544    86.910    81.545    76.282    71.260    66.051
    60.056    52.945    44.949    36.650    28.929    22.409    17.255    13.203
     9.859     7.092     5.307     5.403     8.445    14.928    24.577    36.017
    47.126    55.686    60.152    60.188    56.771    51.779    47.322    44.784
    44.660    46.354    48.665    50.429    51.085    50.893    50.730    51.569
    53.936    57.313    60.441    61.493    58.725    51.056    38.397    21.617
     2.210   -18.184   -38.129   -56.799   -73.585   -88.093   -99.851  -108.213
  -112.448  -111.981  -106.660   -96.910   -83.650   -68.317   -52.229   -36.548
   -22.090    -9.336     1.449    10.094    16.455    20.448    22.172    21.729
    19.533    15.940    11.141     5.055    -2.628   -12.252   -23.901   -37.155
   -50.960   -64.052   -74.978   -82.782   -87.261   -89.016   -89.178   -88.931
   -89.012   -89.404   -89.291   -87.650   -83.390   -76.084   -66.131   -54.635
   -42.977   -32.268   -22.898   -14.390    -5.555     4.747    17.385    32.253
    48.202    63.296    75.381    82.745    84.667    81.658    75.383    67.948
    61.659    58.190    58.288    61.715    67.474    74.214    80.635    85.793
    89.256    90.780    90.518    88.598    85.112    80.154    73.924    66.833
    59.520    52.763    47.363    43.689    41.936    41.858    42.933    44.524
    46.020    46.913    46.776    45.220    41.923    36.424    28.622    18.648
     6.984    -5.614   -18.322   -30.513   -41.948   -52.798   -63.389   -74.132
   -84.806   -94.660  -102.447  -106.771  -106.559  -101.445   -91.925   -79.209
   -64.769   -50.140   -36.182   -23.207   -11.012     0.886    13.028    25.882
    39.833    55.203    72.286    90.933   110.689   130.352   148.033   161.453
   168.480   167.753   159.127   143.767   123.879   101.850    79.959    59.703
    41.807    26.500    13.938     4.501    -1.230    -2.807    -0.351     4.851
    10.717    14.592    14.074     7.800    -4.102   -20.074   -37.698   -54.546
   -68.902   -80.405   -89.616   -97.755  -105.981  -114.871  -124.231  -133.294
  -141.152  -147.210  -151.392  -154.340  -156.794  -159.423  -162.441  -165.470
  -167.633  -167.828  -165.073  -158.823  -149.113  -136.811  -123.184  -109.863
   -98.462   -90.230   -85.787   -84.991   -87.020   -90.631   -94.479   -97.656
   -99.580  -100.160   -99.508   -97.621   -94.145   -88.339   -79.279   -66.221
   -48.908   -27.944    -4.450    20.039    44.001    66.240    86.004   102.911
   116.754   127.335   134.466   137.904   137.794   134.610   129.152   122.324
   114.823   106.900    98.316    88.546    77.179    64.115    49.981    35.871
    23.040    12.466     4.506    -1.216    -5.654   -10.009   -15.344   -22.490
   -31.774   -43.225   -56.636   -71.579   -87.325  -102.737  -116.254  -126.063
  -130.446  -128.384  -119.769  -105.691   -88.234   -70.025   -53.656   -41.177
   -33.809   -31.910   -35.093   -42.539   -52.948   -64.709   -75.898   -84.404
   -88.235   -85.971   -77.227   -62.935   -45.234   -27.086   -11.365    -0.170
     5.737     7.014     5.352     2.790     1.003     0.834     2.249     4.551
     7.010     9.240    11.439    14.308    18.726    25.348    34.303    45.086
    56.678    67.705    76.791    82.681    84.393    81.310    73.289    60.775
    44.880    27.326    10.211    -4.486   -15.352   -22.027   -25.357   -27.183
   -29.800   -35.237   -44.614   -57.794   -73.454   -89.579  -104.079  -115.460
  -123.189  -127.716  -130.157  -131.797  -133.580  -135.767  -137.817  -138.506
  -136.177  -129.091  -115.788   -95.425   -68.075   -34.932     1.638    38.299
    71.215    96.766   112.345   117.025   111.868    99.719    84.505    70.210
    59.839    54.680    54.084    55.865    57.068    54.952    47.798    35.326
    18.644    -0.201   -18.888   -35.464   -48.790   -58.648   -65.640   -70.785
   -75.063   -79.000   -82.392   -84.272   -83.130   -77.353   -65.792   -48.210
   -25.633    -0.221    25.173    47.700    65.239    76.892    83.058    85.087
    84.634    83.092    81.115    78.708    75.571    71.571    67.048    62.742
    59.376    57.079    54.958    51.241    43.712    30.705    11.935   -11.108
   -35.456   -57.580   -74.578   -85.121   -89.796   -90.532   -89.750   -89.145
   -89.014   -88.275   -85.161   -78.256   -67.362   -53.794   -40.006   -28.559
   -21.322   -18.742   -19.892   -23.041   -26.477   -29.153   -30.875   -31.972
   -32.725   -32.707   -30.847   -25.632   -15.793    -0.940    18.146    39.727
    61.704    82.322   100.598   116.481   130.231   141.985   151.307   157.175
   158.404   154.314   145.298   132.997   119.926   108.915   102.066   100.355
   103.499   110.299   119.230   128.980   138.714   147.992   156.435   163.599
   168.604   170.460   168.336   161.851   151.178   136.899   119.702   100.106
    78.337    54.696    29.611     4.084   -20.354   -42.020   -59.687   -73.186
   -83.666   -93.313  -104.620  -119.154  -136.996  -156.230  -173.402  -184.562
  -186.544  -178.029  -159.995  -135.404  -108.324   -82.555   -60.978   -44.894
   -34.223   -28.064   -25.346   -25.258   -27.277   -30.890   -35.267   -38.870
   -39.987   -37.072   -29.503   -18.073    -5.006     6.590    13.691    14.375
     8.448    -2.255   -14.798   -25.929   -33.199   -35.671   -34.047   -30.208
   -26.401   -24.412   -25.098   -28.074   -32.379   -36.759   -40.181   -42.069
   -42.287   -40.958   -38.291   -34.508   -29.954   -24.944   -20.115   -16.012
   -12.855   -10.265    -7.206    -2.248     5.857    17.507    31.715    46.333
    58.231    64.507    63.483    55.440    42.708    29.038    18.436    13.888
    16.364    24.810    36.281    47.218    54.564    56.625    53.361    46.048
    36.524    26.390    16.410     6.695    -3.310   -14.010   -25.239   -36.090
   -45.134   -50.893   -52.359   -49.294   -42.259   -32.027   -19.494    -5.075
    11.300    29.924    50.857    73.494    96.400   117.529   134.705   146.536
   152.542   153.514   151.111   147.186   143.073   139.118   134.669   128.530
   119.606   107.816    94.016    80.064    68.134    59.925    56.051    55.838
    57.648    59.558    60.050    58.785    56.307    53.933    53.059    54.541
    58.310    63.354    68.009    70.388    68.727    61.869    49.000    29.899
     4.918   -24.938   -57.921   -91.576  -123.012  -149.415  -168.762  -180.136
  -184.322  -183.329  -179.790  -176.088  -173.600  -172.344  -171.161  -168.359
  -162.603  -153.352  -141.471  -128.737  -117.252  -108.681  -103.675  -101.703
  -101.314  -100.707   -98.410   -93.501   -86.055   -76.710   -66.302   -55.448
   -44.289   -32.497   -19.512    -4.914    11.190    28.205    44.815    59.516
    71.039    78.814    83.263    85.802    88.497    93.465   102.126   114.837
   130.352   146.232   159.401   166.967   167.009   159.047   144.074   124.153
   101.703    79.040    57.645    38.281    21.148     6.210    -6.564   -17.178
   -25.791   -32.965   -39.816   -47.646   -57.759   -70.694   -85.842  -101.412
  -114.889  -123.857  -126.884  -124.115  -117.345  -109.265  -102.766   -99.770
  -100.662  -104.273  -108.461  -111.020  -110.528  -106.790  -100.754   -93.725
   -86.803   -80.070   -72.427   -61.930   -46.528   -24.890     2.973    35.534
    70.028   103.280   132.261   154.889   170.322   178.930   181.971   181.124
   178.024   173.924   169.498   165.001   160.199   154.727   148.269   140.713
   132.223   123.214   114.237   105.826    98.319    91.875    86.258    80.994
    75.423    68.803    60.428    49.744    36.479    20.756     3.141   -15.269
   -33.162   -49.181   -62.312   -72.191   -79.237   -84.537   -89.464   -95.168
  -102.147  -109.941  -117.422  -123.158  -126.042  -125.789  -123.112  -119.490
  -116.604  -115.669  -116.939  -119.490  -121.596  -121.224  -116.684  -107.100
   -92.563   -73.980   -52.716   -30.239    -7.900    13.175    31.940    47.426
    58.788    65.479    67.506    65.593    61.170    56.110    52.295    51.206
    53.552    59.260    67.675    77.920    89.264   101.333   114.110   127.733
   142.217   157.254   172.095   185.682   196.868   204.668   208.438   207.930
   203.229   194.624   182.486   167.221   149.274   129.221   107.843    86.167
    65.410    46.848    31.604    20.430    13.514    10.380     9.936    10.645
    10.830     9.015     4.236    -3.792   -14.694   -27.647   -41.711   -56.193
   -70.826   -85.791  -101.482  -118.105  -135.269  -151.724  -165.392  -173.729
  -174.353  -165.818  -148.173  -123.277   -94.605   -66.600   -43.712   -29.368
   -25.156   -30.462   -42.641   -57.761   -71.500   -80.197   -81.580   -75.058
   -61.552   -42.973   -21.570     0.642    22.207    42.187    60.083    75.513
    88.053    97.205   102.505   103.669   100.704    93.895    83.716    70.611
    55.033    37.391    18.181    -1.876   -21.797   -40.446   -56.778   -70.130
   -80.385   -88.068   -93.963   -98.852  -103.133  -106.642  -108.718  -108.478
  -105.182   -98.513   -88.640   -76.214   -61.956   -46.575   -30.669   -14.834
     0.167    13.292    23.308    29.099    30.104    26.511    19.490    10.750
     1.989    -5.724   -12.328   -18.713   -26.214   -35.856   -47.630   -60.319
   -71.494   -78.336   -78.480   -70.752   -55.489   -34.366    -9.832    15.549
    39.660    60.866    78.171    90.851    98.376   100.487    97.439    90.232
    80.627    70.827    62.897    57.927    55.823    55.142    53.632    49.039
    39.910    26.046     8.449   -11.191   -31.168   -50.504   -68.865   -86.474
  -103.546  -119.786  -134.198  -145.301  -151.630  -152.280  -147.136  -136.965
  -122.694  -105.087   -84.404   -60.505   -33.320    -3.460    27.409    56.657
    81.376    99.124   109.088   112.264   111.186   108.993   108.221   109.817
   112.770   114.522   112.053   102.936    86.636    64.687    40.377    17.804
     0.703    -8.560    -9.537    -3.681     6.194    16.470    23.850    25.805
    21.050     9.681    -6.942   -26.551   -46.493   -64.334   -78.373   -88.214
   -94.492   -98.776  -102.922  -108.394  -115.728  -124.324  -132.640  -138.699
  -140.649  -137.487  -128.942  -115.592   -98.497   -78.841   -57.702   -36.026
   -14.755     4.994    21.919    34.414    41.179    41.343    34.806    22.367
     5.660   -13.057   -31.218   -46.271   -55.944   -58.763   -53.965   -41.904
   -24.032    -2.713    19.187    38.897    54.355    64.657    70.232    72.340
    72.847    73.325    74.586    76.487    78.100    78.146    75.504    69.568
    60.432    48.536    34.777    20.071     5.323    -8.544   -20.544   -29.673
   -35.111   -36.522   -34.269   -29.686   -24.488   -20.456   -18.743   -19.400
   -21.260   -22.279   -20.225   -13.438    -1.342    15.188    34.466    54.359
    72.969    89.031   101.961   111.605   117.858   120.389   118.672   112.016
   100.287    84.021    64.579    43.963    24.401     7.875    -4.249   -11.387
   -13.644   -11.879    -7.201    -1.056     4.940     9.147    10.140     7.013
    -0.336   -11.095   -23.656   -36.278   -47.368   -56.205   -63.075   -69.024
   -75.257   -82.417   -90.082   -96.739  -100.236   -98.864   -91.930   -80.468
   -67.066   -55.118   -47.712   -46.563   -51.409   -60.093   -69.217   -75.413
   -76.044   -70.019   -57.780   -40.875   -21.288    -0.860    19.008    37.322
    53.314    66.039    74.648    78.407    77.098    71.281    62.310    52.015
    42.159    33.891    27.470    22.166    16.954    10.935     3.876    -3.637
   -10.459   -15.434   -17.988   -18.463   -17.982   -18.114   -19.924   -23.551
   -27.973   -31.311   -31.545   -27.334   -18.618    -6.743     6.005    17.030
    24.518    27.857    27.753    25.812    23.804    22.928    23.373    24.338
    24.506    22.565    18.023    11.361     3.947    -2.432    -6.208    -6.583
    -3.811     0.867     5.615     8.395     7.664     2.606    -6.694   -19.299
   -33.625   -47.722   -59.591   -67.492   -70.185   -67.251   -59.010   -46.598
   -31.730   -16.385    -2.421     8.758    16.416    20.501    21.518    20.158
    17.166    13.029     7.937     1.867    -5.238   -13.249   -21.691   -29.688
   -36.023   -39.418   -38.679   -33.085   -22.628    -8.159     8.625    25.405
    39.661    49.228    52.876    50.634    43.998    35.546    28.299    24.863
    26.656    33.456    43.476    53.933    61.976    65.540    64.044    58.412
    50.626    42.932    37.011    33.465    31.773    30.695    28.929    25.636
    20.774    14.912     8.830     3.079    -2.228    -7.267   -12.067   -16.029
   -17.702   -15.060    -6.165     9.880    32.191    57.889    82.603   101.561
   110.928   108.883    96.066    75.204    50.157    24.667     1.365   -18.661
   -35.648   -50.460   -63.789   -75.605   -85.086   -91.005   -92.363   -88.956
   -81.631   -72.110   -62.493   -54.649   -49.726   -47.957   -48.773   -51.119
   -53.863   -56.092   -57.281   -57.308   -56.364   -54.825   -53.084   -51.365
   -49.539   -46.946   -42.434   -34.541   -21.954    -4.114    18.238    42.802
    65.962    83.545    91.929    89.219    75.917    55.024    31.330    10.130
    -4.215    -9.426    -5.795     4.118    16.422    27.207    33.581    34.409
    30.357    23.417    16.112    10.689     8.541     9.981    14.361    20.524
