CORRECTED ACCELEROGRAM                              CHAN 1
UNCORRECTED ACCELEROGRAM DATA              PROCESSED: 08/04/2010
MAULE 2010
01/01/1980 0:00:00 (GMT)                (ORIGIN: 01/01/1980 0:00:00 GMT)
                                   TRIGGER TIME: 1/1/1980 0:00:00.000 GMT
STATION NO.          0.000N    0.000E  SMA-1     S/N  0   (3  CHNS OF 3  AT STA)
HUALANE S/N 4564
CHAN  1:  L       (STA CHN:  1)               
UNIVERSIDAD DE CHILE - RENADIC
HYPOCENTER:   0.000N    0.000E  H=   0.0KM   ML= 0.00
INSTR PERIOD = 0.0380 SEC,  DAMPING =0.6000,  SENSITIVITY =1.000 VDC/G
                        RECORD LENGTH =144.055 SEC
                                     UNCOR MAX  = -0.389 G, AT  29.410 SEC
RMS ACCEL OF (UNCOR) RECORD  = 0.060 G
ACCELEROGRAM BANDPASS FILTERED WITH RAMPS AT 0.150-0.250 AND 23.00-25.00 CYC/SEC
 28811 POINTS OF INSTRUMENT- AND BASELINE-CORRECTED ACCEL, VELOC, AND DISPL DATA
AT EQUALLY-SPACED INTERVALS OF   0.005  SEC.
PEAK ACCELERATION =   374.699    CM/SEC/SEC  AT   29.405   SEC.
PEAK   VELOCITY   =    38.828      CM/SEC    AT   28.520   SEC.
PEAK DISPLACEMENT =     4.842        CM      AT   28.355   SEC.
INITIAL VELOCITY  =     0.174   CM/SEC;   INITIAL DISPLACEMENT =   -0.074   CM
UNIVERSIDAD DE CHILE - RENADIC



    1    1    1    3    3    0    1    0    0    0    0    0    0    0    0    0
    0    0    0    0    0    0    0    0    0    0    028811   10   16   30    0
    0    0    0    0    0    0    0    0    0    0    0    0    0    0    0    0
    0    0288112881128811    1   10   10    0    0   30   16   10   10    028811
    028811    0    0    0    0    0    0    0    0    0    0    0    0    0    0
    0    0    0    0    0    0    0    0    0    0    0    0    0    0    0    0
    0    0    0    0
     0.038     0.600   144.055     0.060     0.100     1.000    -0.389    29.410
    26.316     0.000     0.000     0.000     5.000     0.000     5.000     5.000
     0.000     0.000     0.000     0.000     0.000     0.000     0.000     0.000
     0.000     0.000     0.000     0.000     0.000     0.000     0.000     0.000
     0.000     0.000     0.000     0.000     0.000     0.000     0.000     0.000
     0.000     0.000     0.000     0.000     0.000     0.000     0.000     0.000
     0.000     0.000     0.000    98.067     0.005   144.055     0.000     0.000
     0.000    25.000     2.000   144.055     0.005     0.250     0.100     0.000
    29.405   374.699    28.520    38.828    28.355     4.842     0.174     0.250
    23.000     0.005     0.005    -0.074     0.000     0.000     0.000     0.000
     0.000     0.000     0.000     0.000     0.000     0.000     0.000     0.000
     0.000     0.000     0.000     0.000     0.000     0.000     0.000     0.000
     0.000     0.000     0.000     0.000
28811 POINTS OF ACCEL DATA EQUALLY SPACED AT 0.005 SEC.  (UNITS: CM/SEC/SEC)
[...]
   -56.629   -60.876   -50.209   -26.893     2.565    29.467    45.809    46.977
    33.161     9.116   -17.671   -39.612   -51.447   -51.601   -42.122   -27.389
   -12.264    -0.402     6.597     9.170     9.037     8.213     8.219     9.738
    12.681    16.456    20.187    22.821    23.057    19.399    10.379    -4.987
   -26.672   -53.288   -82.140  -109.780  -132.899  -149.238  -158.224  -160.977
  -159.759  -157.045  -154.595  -152.874  -151.052  -147.543  -140.843  -130.292
  -116.528  -101.364   -87.228   -76.395   -70.292   -69.148   -72.068   -77.446
   -83.499   -88.666   -91.769   -91.869   -88.016   -79.110   -64.053   -42.213
   -14.054    18.378    51.428    80.461   101.008   110.172   107.708    96.341
    81.076    67.646    60.609    61.781    69.626    79.907    87.342    87.736
    79.710    65.380    49.693    38.675    37.267    47.582    68.230    94.952
   122.186   145.002   160.571   168.693   171.298   171.243   171.009   171.833
   173.563   175.161   175.434   173.628   169.541   163.189   154.306   142.053
   125.208   102.838    75.140    44.029    13.036   -13.529   -31.943   -40.424
   -39.903   -33.827   -27.018   -23.987   -27.356   -36.995   -50.250   -63.106
   -71.842   -74.491   -71.543   -65.635   -60.403   -59.000   -62.886   -71.334
   -81.832   -91.084   -96.216   -95.659   -89.435   -78.807   -65.573   -51.367
   -37.278   -23.900   -11.707    -1.438     5.757     8.546     5.949    -2.087
   -14.377   -28.649   -42.148   -52.481   -58.369   -59.985   -58.769   -56.781
   -55.897   -57.160   -60.549   -65.215   -70.039   -74.221   -77.639   -80.821
   -84.563   -89.413   -95.277  -101.338  -106.329  -109.032  -108.754  -105.572
  -100.247   -93.847   -87.311   -81.134   -75.347   -69.758   -64.301   -59.262
   -55.237   -52.771   -51.875   -51.653   -50.285   -45.478   -35.237   -18.690
     3.407    28.717    53.953    75.872    92.243   102.418   107.293   108.696
   108.490   107.803   106.679   104.308    99.657    92.206    82.395    71.581
    61.508    53.536    47.996    43.998    39.803    33.635    24.602    13.324
     2.003    -6.138    -7.870    -1.054    14.532    36.947    62.490    86.633
   105.196   115.430   116.710   110.641   100.566    90.586    84.362    84.018
    89.479    98.467   107.194   111.579   108.611    97.381    79.416    58.145
    37.669    21.284    10.335     3.838    -0.956    -7.328   -17.693   -32.672
   -50.994   -70.245   -88.051  -103.105  -115.497  -126.207  -136.017  -144.448
  -149.325  -147.317  -135.300  -111.959   -78.879   -40.547    -3.161    27.334
    47.186    55.955    56.371    52.986    50.243    50.747    54.441    58.960
    60.899    57.423    47.502    32.309    14.740    -1.702   -14.098   -20.939
   -22.341   -19.681   -14.931    -9.977    -6.168    -4.195    -4.165    -5.832
    -8.812   -12.748   -17.412   -22.749   -28.846   -35.806   -43.545   -51.576
   -58.837   -63.763   -64.599   -59.910   -49.136   -32.966   -13.347     6.901
    24.783    37.879    44.969    46.256    43.191    37.955    32.758    29.166
    27.616    27.280    26.314    22.463    13.955     0.330   -17.022   -34.970
   -49.478   -57.035   -56.184   -48.491   -38.395   -31.764   -33.465   -44.960
   -62.947   -79.900   -86.616   -75.975   -46.440    -3.714    40.424    71.935
    79.783    60.463    19.966   -27.865   -66.130   -81.051   -67.132   -29.253
    19.171    61.191    82.593    76.897    47.306     5.011   -35.250   -60.512
   -63.711   -45.265   -11.846    26.715    61.052    84.887    96.033    95.799
    87.511    74.983    61.540    49.685    41.152    36.900    36.945    40.007
    43.410    43.544    36.944    21.678    -1.528   -29.016   -55.034   -73.532
   -80.185   -74.000   -57.787   -37.326   -19.540   -10.319   -12.746   -26.282
   -47.066   -69.208   -86.486   -94.076   -89.768   -74.442   -51.753   -27.135
    -6.386     5.841     7.242    -1.590   -17.377   -35.244   -50.272   -59.064
   -60.794   -57.338   -52.462   -50.354   -54.078   -64.581   -80.512   -99.005
  -116.932  -132.081  -143.755  -152.543  -159.460  -164.895  -167.928  -166.435
  -157.866  -140.532  -114.705   -83.071   -50.256   -21.563    -1.360     8.287
     8.247     1.953    -5.686    -9.844    -7.136     3.613    21.390    43.697
    67.600    90.703   111.703   130.362   147.098   162.316   175.924   187.213
   195.150   198.894   198.272   193.923   187.009   178.561   168.902   157.307
   142.276   122.335    97.066    67.878    38.114    12.302    -5.239   -11.996
    -8.286     2.576    15.239    24.038    24.866    16.495     0.852   -17.825
   -34.594   -45.622   -49.382   -47.010   -41.634   -37.046   -36.251   -40.440
   -48.719   -58.620   -67.137   -71.939   -72.174   -68.799   -64.206   -61.350
   -62.664   -69.130   -79.800   -91.964  -101.930  -106.242  -102.813   -91.750
   -75.401   -57.600   -42.347   -32.372   -28.168   -27.889   -28.192   -25.781
   -18.858    -8.063     3.691    12.393    14.651     9.210    -2.408   -16.448
   -28.405   -34.875   -34.762   -29.521   -22.170   -15.622   -11.123    -7.583
    -2.131     8.325    25.286    47.425    70.720    89.813   100.183   100.136
    91.719    80.092    71.572    71.120    80.329    96.648   114.312   126.375
   127.184   114.289    89.127    56.362    22.236    -7.346   -28.321   -39.193
   -40.798   -35.605   -26.791   -17.494   -10.332    -7.130    -8.719   -14.729
   -23.451   -32.004   -36.792   -34.481   -23.094    -2.888    23.376    51.012
    74.704    90.122    95.286    91.111    81.100    70.104    62.793    62.334
    69.710    83.826   102.187   121.766   139.670   153.361   160.640   159.469
   148.074   125.409    91.863    49.855     3.927   -39.920   -75.573   -98.484
  -106.941  -102.610   -89.934   -74.609   -61.672   -53.883   -50.998   -50.182
   -47.375   -39.143   -24.146    -3.892    17.648    35.362    44.771    43.659
    32.963    16.666     0.699    -8.826    -7.379     6.558    30.981    60.851
    89.439   110.138   118.208   111.946    92.959    65.412    34.687     5.678
   -18.536   -37.289   -52.024   -65.242   -79.155   -94.563  -110.386  -124.082
  -132.587  -133.600  -126.537  -112.834   -95.514   -78.224   -64.136   -55.137
   -51.559   -52.499   -56.351   -61.476   -66.567   -70.736   -73.394   -74.143
   -72.808   -69.638   -65.489   -61.853   -60.410   -62.391   -67.839   -75.202
   -81.540   -83.390   -78.027   -64.618   -44.756   -22.137    -1.288    13.971
    21.889    23.335    21.344    19.864    22.241    30.068    42.865    58.533
    74.454    88.450    99.294   106.548   109.949   108.801   101.835    87.731
    66.106    38.373     8.066   -19.944   -41.005   -52.490   -55.004   -52.339
   -50.023   -52.928   -62.910   -77.591   -90.767   -94.642   -82.912   -53.533
    -9.988    39.553    84.927   117.515   133.251   133.867   126.055   118.718
   119.584   132.448   156.083   185.108   212.316   231.424   239.147   235.823
   224.695   210.160   196.000   184.279   175.223   167.911   161.254   154.681
   148.234   142.077   135.964   128.891   119.383   106.248    89.426    70.449
    52.179    37.847    29.790    28.383    31.825    36.716    39.362    37.181
    29.654    18.418     6.512    -2.876    -7.592    -7.234    -3.030     2.789
     7.915    10.722    10.607     7.891     3.453    -1.653    -6.419    -9.992
   -11.649   -10.973    -8.130    -4.186    -1.251    -2.224   -10.096   -26.991
   -53.291   -87.277  -125.398  -163.282  -197.022  -224.301  -244.920  -260.542
  -273.793  -287.113  -301.813  -317.746  -333.498  -347.115  -356.848  -361.648
  -361.231  -355.805  -345.656  -330.890  -311.443  -287.405  -259.360  -228.681
  -197.517  -168.506  -144.297  -127.052  -118.040  -117.377  -123.881  -135.062
  -147.164  -155.492  -155.012  -141.277  -111.513   -65.584    -6.425    60.301
   127.360   187.598   235.616   268.810   287.468   293.923   291.145   281.435
   265.765   244.055   216.193   183.209   148.013   115.140    89.536    74.840
    71.895    78.210    88.707    97.542   100.299    95.655    85.865    75.787
    70.886    74.989    88.712   109.157   130.951   148.167   156.335   153.743
   141.641   123.352   102.805    83.137    65.930    51.265    38.429    26.788
    16.395     8.002     2.581     0.612     1.578     3.944     5.651     4.880
     0.699    -6.716   -16.415   -27.339   -38.965   -51.515   -65.576   -81.224
   -97.087  -109.857  -114.611  -106.022   -80.102   -35.864    23.715    91.896
   159.518   217.102   257.045   275.230   271.614   249.756   215.553   175.711
   136.381   102.274    76.259    59.312    50.624    47.787    47.118    44.225
    34.885    16.140   -12.730   -49.712   -90.388  -129.107  -160.666  -181.924
  -192.704  -195.606  -194.801  -194.268  -196.300  -200.837  -205.966  -209.296
  -209.549  -207.551  -206.115  -208.787  -217.995  -233.448  -251.620  -266.589
  -272.034  -263.569  -240.466  -206.011  -166.319  -128.084   -96.192   -72.116
   -53.830   -37.092   -17.637     6.677    34.635    61.812    82.015    89.439
    80.718    56.183    19.799   -21.952   -61.951   -94.348  -115.921  -126.518
  -128.547  -125.781  -121.979  -119.724  -120.014  -122.487  -126.241  -130.814
  -136.833  -146.011  -160.414  -181.266  -207.825  -236.830  -263.064  -280.747
  -285.467  -275.835  -254.131  -225.599  -196.555  -172.019  -153.834  -139.976
  -125.568  -104.940   -74.091   -32.453    16.724    67.498   113.322   149.220
   173.160   186.273   191.804   193.707   195.344   198.896   205.494   215.706
   229.854   247.822   268.394   288.694   304.039   308.942   298.881   272.303
   231.953   184.792   140.331   107.858    93.579    98.879   120.134   150.420
   182.145   209.583   230.338   245.257   257.067   268.510   280.897   293.784
   305.526   314.570   320.451   324.006   326.686   329.356   331.316   330.155
   322.640   306.415   281.459   250.898   220.437   196.608   184.515   185.957
   198.728   217.376   235.102   246.159   247.543   239.749   226.118   211.228
   198.987   191.142   186.671   182.161   172.912   154.451   123.654    79.654
    24.049   -39.358  -105.207  -167.439  -220.249  -259.010  -281.053  -286.017
  -275.993  -254.928  -227.737  -199.175  -172.806  -150.343  -131.554  -114.730
   -97.579   -78.102   -55.531   -30.610    -5.516    16.660    32.651    39.789
    36.591    23.078     0.732   -27.705   -58.898   -89.433  -116.432  -138.002
  -153.438  -163.152  -168.348  -170.547  -171.131  -170.906  -170.165  -168.737
  -166.321  -162.812  -158.496  -154.044  -150.315  -148.083  -147.845  -149.647
  -153.370  -158.835  -166.016  -175.078  -186.202  -199.286  -213.653  -227.934
  -240.244  -248.486  -251.046  -247.132  -236.981  -221.691  -202.798  -181.774
  -159.658  -136.974  -113.948   -90.719   -67.776   -45.902   -26.007    -8.793
     5.536    17.371    27.534    36.939    46.217    55.671    65.197    74.666
    84.178    94.126   104.972   116.788   128.786   139.122   145.129   144.150
   134.289   115.329    89.023    58.778    28.784     2.897   -16.363   -28.355
   -34.313   -36.715   -38.681   -43.104   -52.107   -66.750   -86.928  -111.434
  -138.136  -164.319  -187.227  -204.626  -215.648  -221.082  -223.320  -225.642
  -231.020  -240.814  -253.857  -266.374  -272.922  -267.961  -247.947  -212.673
  -165.741  -113.756   -64.523   -24.837     1.389    14.047    16.524    14.503
    13.944    19.460    33.187    54.567    80.942   108.645   134.141   154.883
   169.637   178.463   182.058   181.282   176.618   167.935   154.551   135.621
   110.711    80.397    46.647    12.939   -16.416   -37.136   -46.224   -43.061
   -29.949   -11.806     5.035    14.645    13.363     1.240   -17.891   -37.310
   -49.443   -48.234   -31.075     0.374    40.774    82.933   120.177   148.615
   168.117   182.164   196.276   215.744   243.456   278.572   316.471   349.977
   371.374   374.699   357.236   320.296   268.778   209.908   151.561   100.636
    61.879    37.305    26.230    25.920    32.304    41.076    48.617    52.731
    53.019    50.797    48.532    48.925    53.845    63.580    76.332    88.607
    96.064    94.734    82.176    58.199    24.932   -13.767   -53.354   -89.608
  -119.594  -141.941  -156.734  -165.051  -168.406  -168.300  -165.994  -162.492
  -158.650  -155.172  -152.722  -151.742  -152.335  -154.183  -156.573  -158.555
  -159.187  -157.804  -154.243  -148.829  -142.389  -135.865  -129.929  -124.565
  -118.831  -110.944   -98.745   -80.485   -55.681   -25.622     6.532    36.530
    60.283    75.259    81.466    81.557    79.920    81.024    87.630    99.690
   114.222   126.562   132.294   129.161   118.111   102.996    89.020    80.578
    79.396    83.873    89.706    91.808    86.472    72.937    53.678    33.344
    16.844     7.452     5.740     9.798    16.382    22.605    27.167    30.650
    34.781    41.100    49.729    58.883    65.384    65.991    58.782    44.139
    24.722     4.541   -12.478   -23.771   -28.723   -28.370   -24.454   -18.273
   -10.007     1.328    17.193    38.516    64.833    93.969   122.418   146.233
   162.077   168.073   164.101   151.653   133.262   111.801    89.840    69.183
    50.627    33.945    18.092     1.658   -16.524   -36.676   -57.562   -76.430
   -89.576   -93.501   -86.323   -68.941   -45.385   -22.084    -6.146    -3.176
   -15.436   -41.067   -74.711  -109.364  -138.733  -159.206  -170.659  -175.830
  -178.583  -181.852  -186.181  -189.473  -188.057  -178.539  -159.620  -133.044
  -103.274   -76.036   -56.338   -46.848   -47.230   -54.678   -65.309   -75.773
   -84.378   -91.311   -97.988  -105.967  -115.936  -127.327  -138.620  -148.107
  -154.661  -158.081  -158.820  -157.258  -152.926  -144.189  -128.531  -103.551
   -68.176   -23.627    26.320    75.927   118.779   149.331   164.200   162.780
   147.160   121.326    90.072    57.948    28.486     3.836   -15.232   -29.061
   -38.685   -45.425   -50.376   -54.111   -56.496   -56.740   -53.719   -46.486
   -34.817   -19.581    -2.729    13.074    25.290    32.286    33.956    31.853
    28.767    27.897    31.890    42.104    58.346    79.046   101.969   124.865
   146.025   164.463   179.766   191.751   200.156   204.540   204.430   199.526
   190.067   176.819   160.913   143.517   125.534   107.496    89.756    72.861
    57.949    46.768    41.474    43.812    54.246    71.267    91.276   109.187
   119.656   118.565   104.250    77.915    43.353     5.671   -30.224   -60.926
   -85.156  -103.524  -117.613  -128.852  -137.666  -143.427  -144.879  -141.240
  -133.089  -122.725  -113.711  -109.740  -113.252  -124.387  -140.706  -157.984
  -171.427  -177.333  -174.205  -163.052  -146.806  -129.136  -113.176  -100.657
   -91.715   -85.473   -80.683   -76.553   -73.014   -70.520   -69.528   -69.982
   -71.124   -71.741   -70.710   -67.707   -63.316   -58.943   -56.146   -55.816
   -57.561   -59.597   -59.213   -53.649   -40.986   -20.896     5.469    35.787
    67.319    97.611   124.909   148.197   166.981   180.996   190.073   194.019
   192.925   187.099   177.012   163.082   145.494   124.260    99.615    72.645
    45.890    23.311     9.891    10.206    26.861    59.210   102.982   151.088
   195.457   229.252   248.722   253.785   247.641   235.014   220.255   205.905
   192.297   178.223   162.240   143.898   124.315   105.650    90.242    79.273
    72.116    66.513    59.572    49.096    34.661    17.943     2.203    -9.054
   -13.152    -9.301     1.239    15.652    30.480    42.581    49.818    51.348
    47.580    39.686    29.369    18.188     7.066    -4.140   -16.839   -33.480
   -56.837   -88.937  -129.908  -177.475  -226.881  -272.092  -307.391  -328.958
  -335.740  -329.203  -312.085  -286.743  -253.911  -212.776  -161.927  -101.457
   -34.655    31.475    87.408   123.766   134.448   118.943    82.811    35.803
   -11.153   -49.597   -75.807   -91.044   -99.738  -106.526  -113.506  -118.965
  -118.064  -105.366   -77.525   -35.614    14.468    63.471   101.610   121.620
   120.924   102.184    72.222    39.604    12.315    -4.395    -8.913    -3.015
     9.296    23.424    35.766    44.845    51.736    59.497    72.227    93.335
   124.024   162.289   202.887   238.409   261.237   265.756   250.116   216.675
   171.433   122.019    75.485    36.503     6.663   -14.988   -30.514   -41.488
   -47.915   -48.310   -40.372   -22.513     4.932    39.104    74.896   105.937
   125.918   129.846   114.974    81.111    30.879   -30.698   -96.738  -159.406
  -211.112  -245.844  -260.313  -254.529  -231.538  -196.522  -155.123  -112.195
   -70.983   -33.190     0.317    28.628    50.339    63.850    68.349    64.782
    56.580    49.020    47.690    56.389    75.392   100.904   126.083   143.314
   146.918   135.014   110.178    78.127    45.414    16.950    -5.578   -23.796
   -41.307   -61.609   -86.194  -113.798  -140.700  -162.336  -175.123  -177.862
  -172.151  -161.728  -151.104  -144.075  -142.654  -146.890  -155.150  -165.098
  -174.595  -182.361  -188.218  -192.949  -197.886  -204.372  -213.219  -224.372
