CORRECTED ACCELEROGRAM                              CHAN 1
UNCORRECTED ACCELEROGRAM DATA              PROCESSED: 05/09/2011
PUNITAQUI 1997
01/01/1980 0:00:00 (GMT)                (ORIGIN: 01/01/1980 0:00:00 GMT)
                                   TRIGGER TIME: 1/1/1980 0:00:00.000 GMT
STATION NO.          0.000N    0.000E  SMA-1     S/N  456 (3  CHNS OF 3  AT STA)
ILLAPEL S/N 4565
CHAN  1:  L       (STA CHN:  1)               
UNIVERSIDAD DE CHILE - RENADIC
HYPOCENTER:   0.000N    0.000E  H=   0.0KM   ML= 0.00
INSTR PERIOD = 0.0390 SEC,  DAMPING =0.6000,  SENSITIVITY =1.000 VDC/G
                        RECORD LENGTH = 79.980 SEC
                                     UNCOR MAX  = -0.286 G, AT  18.205 SEC
RMS ACCEL OF (UNCOR) RECORD  = 0.043 G
ACCELEROGRAM BANDPASS FILTERED WITH RAMPS AT 0.150-0.250 AND 23.00-25.00 CYC/SEC
 15996 POINTS OF INSTRUMENT- AND BASELINE-CORRECTED ACCEL, VELOC, AND DISPL DATA
AT EQUALLY-SPACED INTERVALS OF   0.005  SEC.
PEAK ACCELERATION =   267.732    CM/SEC/SEC  AT   20.055   SEC.
PEAK   VELOCITY   =    11.123      CM/SEC    AT   22.480   SEC.
PEAK DISPLACEMENT =     1.934        CM      AT   24.115   SEC.
INITIAL VELOCITY  =    -0.010   CM/SEC;   INITIAL DISPLACEMENT =    0.027   CM
UNIVERSIDAD DE CHILE - RENADIC



    1    1    1    3    3    0    1    0    0    0    0    0    0    0    0    0
    0    0    0    0    0    0    0    0    0    0    015996   14   16   30    0
    0    0    0    0    0    0    0    0    0    0    0    0    0    0    0    0
    0    0159961599615996    1   10   10    0    0   30   16   10   10    015996
    015996    0    0    0    0    0    0    0    0    0    0    0    0    0    0
    0    0    0    0    0    0    0    0    0    0    0    0    0    0    0    0
    0    0    0    0
     0.039     0.600    79.980     0.043     0.100     1.000    -0.286    18.205
    25.641     0.000     0.000     0.000     5.000     0.000     5.000     5.000
     0.000     0.000     0.000     0.000     0.000     0.000     0.000     0.000
     0.000     0.000     0.000     0.000     0.000     0.000     0.000     0.000
     0.000     0.000     0.000     0.000     0.000     0.000     0.000     0.000
     0.000     0.000     0.000     0.000     0.000     0.000     0.000     0.000
     0.000     0.000     0.000    98.067     0.005    79.980     0.000     0.000
     0.000    25.000     2.000    79.980     0.005     0.250     0.100     0.000
    20.055   267.732    22.480    11.123    24.115     1.934    -0.010     0.250
    23.000     0.005     0.005     0.027     0.000     0.000     0.000     0.000
     0.000     0.000     0.000     0.000     0.000     0.000     0.000     0.000
     0.000     0.000     0.000     0.000     0.000     0.000     0.000     0.000
     0.000     0.000     0.000     0.000
15996 POINTS OF ACCEL DATA EQUALLY SPACED AT 0.005 SEC.  (UNITS: CM/SEC/SEC)
[...]
    51.521    65.061    57.418    30.072    -9.951   -51.970   -84.705   -99.518
   -92.775   -66.552   -27.686    14.625    51.668    77.627    90.841    93.626
    90.887    88.121    89.537    96.956   109.598   124.864   139.517   150.809
   157.139   158.088   153.973   145.253   132.110   114.491    92.360    66.182
    37.147     7.036   -22.260   -49.326   -73.596   -95.275  -114.829  -132.215
  -146.426  -155.419  -156.724  -148.450  -130.279  -103.995   -73.290   -42.887
   -17.347     0.076     7.951     6.723    -1.734   -14.691   -28.999   -41.325
   -48.333   -47.038   -35.482   -13.507    16.549    49.944    80.501   102.367
   111.976   109.387    98.319    84.691    74.132    69.549    69.667    69.519
    62.634    44.117    13.261   -25.512   -63.949   -93.049  -106.706  -104.270
   -91.061   -76.277   -69.291   -75.753   -95.128  -120.698  -142.046  -149.046
  -135.778  -102.773   -56.920    -8.923    30.495    54.237    60.990    55.219
    45.126    39.479    44.487    61.869    88.499   117.794   142.051   154.933
   153.287   137.813   112.528    83.351    56.326    36.112    24.953    22.515
    26.332    32.668    37.485    37.271    29.643    13.700    -9.820   -38.475
   -68.381   -94.638  -112.189  -117.002  -107.336   -84.704   -54.072   -23.005
     0.191     8.947     0.579   -22.479   -53.087   -81.402   -97.900   -96.402
   -76.049   -41.504    -1.349    34.802    59.228    68.257    62.815    47.409
    28.100    10.362    -2.382    -9.121   -10.647    -8.418    -3.679     2.941
    11.144    20.341    29.140    35.321    36.370    30.371    16.817    -2.951
   -26.027   -48.649   -67.172   -78.917   -82.643   -78.560   -68.019   -53.050
   -35.938   -18.857    -3.693     8.184    16.057    19.932    20.457    18.670
    15.636    12.107     8.359     4.353    -0.007    -4.490    -8.381   -10.664
   -10.490    -7.744    -3.378     0.692     2.182    -0.621    -8.086   -18.801
   -29.853   -37.697   -39.337   -33.370   -20.520    -3.480    13.852    27.515
    34.520    33.654    25.764    13.569     1.101    -7.117    -7.004     4.133
    26.787    58.794    95.324   129.599   154.220   162.890   152.113   122.324
    78.052    26.911   -22.313   -61.913   -87.234   -97.646   -96.294   -88.713
   -80.805   -76.897   -78.514   -84.269   -90.818   -94.447   -92.716   -85.416
   -74.561   -63.402   -54.900   -50.303   -48.471   -46.266   -39.939   -26.918
    -7.333    15.534    36.105    48.476    48.767    36.903    17.058    -3.542
   -17.063   -17.830    -4.395    19.989    48.623    73.856    89.818    94.316
    89.218    79.291    70.093    65.890    68.377    76.664    88.260   100.414
   111.080   119.065   123.447   122.755   114.612    96.250    65.819    23.953
   -25.254   -74.521  -115.044  -139.093  -142.573  -126.557   -97.133   -63.561
   -35.441   -19.904   -19.815   -33.528   -56.092   -81.278  -103.581  -119.473
  -127.606  -128.132  -121.644  -108.309   -87.604   -58.730   -21.476    22.891
    71.145   118.301   158.532   186.581   199.280   196.697   182.490   163.223
   146.693   139.646   145.522   162.996   185.931   204.944   210.285   195.126
   158.135   104.342    43.843   -11.344   -51.220   -71.112   -73.105   -65.019
   -57.268   -58.813   -73.745   -99.814  -129.436  -152.743  -161.409  -151.748
  -125.900   -90.759   -55.166   -26.654    -9.020    -1.630    -0.552    -0.833
     1.180     6.492    13.575    19.707    22.811    22.783    21.705    22.835
    28.883    40.428    55.229    68.795    75.991    72.979    58.740    35.483
     7.868   -18.610   -39.401   -52.156   -57.034   -56.097   -52.138   -47.574
   -43.743   -40.942   -38.921   -37.556   -37.277   -39.036   -43.856   -52.201
   -63.479   -75.945   -86.977   -93.731   -93.847   -86.020   -70.273   -47.923
   -21.279     6.799    33.393    55.933    72.566    82.284    84.910    80.924
    71.229    56.957    39.419    20.210     1.369   -14.650   -25.263   -28.481
   -23.805   -12.937     0.103     9.752    10.488    -1.225   -25.354   -57.814
   -91.332  -117.616  -129.987  -125.539  -105.981   -76.840   -45.361   -17.972
     1.667    13.294    19.343    23.256    27.791    34.041    41.519    49.062
    55.911    62.317    69.293    77.634    86.947    95.175    99.158    95.989
    84.568    66.531    46.002    28.170    17.284    14.903    19.321    26.252
    30.583    28.345    18.066     1.021   -19.587   -39.968   -56.938   -68.542
   -73.926   -72.998   -66.189   -54.602   -40.398   -26.946   -18.264   -17.651
   -25.917   -40.135   -53.627   -57.787   -45.193   -12.921    35.368    89.669
   136.381   162.695   160.982   131.427    81.989    25.551   -24.428   -58.096
   -71.656   -67.369   -51.448   -31.021   -11.562     4.198    15.890    24.070
    28.902    29.681    25.408    15.938     2.867   -10.525   -20.427   -24.280
   -22.141   -16.995   -13.591   -16.303   -26.974   -43.791   -61.761   -74.652
   -77.534   -68.841   -50.915   -29.011    -9.112     4.386    10.125     9.806
     6.934     4.963     5.780     9.128    13.250    16.112    16.651    15.329
    13.775    13.776    16.209    20.512    24.987    27.680    27.496    24.736
    20.900    17.784    16.362    16.084    14.997    10.686     1.607   -11.943
   -27.591   -41.764   -51.171   -54.247   -51.873   -46.989   -43.274   -43.498
   -48.325   -56.166   -63.994   -68.891   -69.372   -65.907   -60.351   -54.587
   -49.109   -42.343   -31.144   -12.423    14.958    48.712    83.038   110.031
   122.181   115.002    88.776    48.713     3.485   -37.360   -66.005   -78.301
   -74.317   -57.614   -33.667    -8.121    14.556    31.737    42.665    48.027
    49.473    49.053    48.721    49.872    52.928    57.124    60.665    61.328
    57.384    48.444    35.930    22.699    11.985     6.010     4.877     6.320
     6.515     1.698   -10.074   -27.866   -47.887   -64.825   -73.831   -72.368
   -61.142   -43.758   -25.282   -10.376    -1.782     0.230    -2.537    -7.357
   -11.774   -14.341   -14.703   -13.199   -10.357    -6.656    -2.630     0.836
     2.482     1.013    -4.142   -12.069   -20.096   -24.370   -21.197    -8.639
    12.383    38.035    62.836    81.618    91.452    92.595    88.050    81.935
    77.485    75.648    74.991    72.873    67.336    58.554    49.100    42.746
    42.359    47.937    55.851    59.800    53.193    31.904    -3.742   -48.728
   -94.902  -133.644  -158.520  -166.887  -159.969  -141.681  -116.923   -90.203
   -64.950   -43.516   -27.339   -16.844   -10.987    -6.849     0.110    14.705
    39.792    74.003   110.747   139.340   148.385   130.330    85.334    22.578
   -41.961   -90.757  -111.065   -99.774   -64.602   -21.077    13.578    27.095
    16.539   -11.369   -43.963   -68.569   -77.904   -72.568   -59.623   -48.258
   -44.761   -49.355   -56.410   -57.839   -47.877   -26.768    -1.411    17.424
    20.070     2.688   -30.536   -68.812   -99.163  -111.788  -103.885   -80.233
   -50.385   -23.916    -6.041     4.335    13.324    28.284    53.491    87.402
   122.804   149.749   159.861   149.979   123.520    89.035    56.728    34.589
    25.823    28.514    37.374    46.505    51.793    51.935    47.909    41.501
    33.899    25.139    14.632     2.279   -10.638   -21.460   -27.173   -25.949
   -18.353    -7.448     2.391     7.477     6.664     2.096    -1.608     0.528
    11.341    29.811    50.908    67.200    71.567    59.943    32.986    -3.971
   -42.607   -74.247   -92.454   -94.673   -82.535   -60.866   -35.940   -13.628
     1.992     9.297     9.027     3.645    -3.592    -9.574   -12.167   -10.692
    -6.050    -0.416     3.409     2.825    -3.789   -16.606   -34.317   -54.502
   -74.289   -91.003  -102.659  -108.216  -107.617  -101.728   -92.243   -81.514
   -72.229   -66.812   -66.693   -71.546   -78.939   -84.670   -83.867   -72.597
   -49.432   -16.332    21.599    57.536    84.981    99.771   101.174    91.665
    75.522    56.873    38.083    19.184    -1.429   -25.374   -52.649   -80.700
  -104.793  -119.563  -121.056  -108.351   -83.980   -52.913   -20.527     9.594
    36.931    63.890    94.179   130.395   171.889   213.886   248.358   266.442
   261.536   231.963   182.013   121.095    61.089    12.861   -16.866   -27.217
   -22.916   -12.215    -3.830    -3.932   -14.381   -32.542   -52.758   -68.716
   -75.763   -72.285   -59.742   -41.520   -21.265    -1.459    17.019    34.411
    50.952    65.838    76.919    81.354    76.942    63.428    43.029    19.867
    -1.681   -18.746   -31.127   -41.102   -51.930   -65.711   -81.683   -95.930
  -102.825   -97.627   -79.216   -51.401   -22.165    -0.901     5.274    -5.432
   -28.467   -54.477   -72.843   -75.688   -60.857   -32.453     1.045    30.255
    48.409    53.462    48.034    37.436    26.825    18.895    12.926     5.696
    -6.491   -25.616   -50.586   -77.258   -99.723  -112.233  -111.009   -95.227
   -67.199   -31.629     5.491    38.072    61.006    71.057    67.535    52.652
    31.323    10.358    -3.173    -3.820    10.498    37.578    71.298   103.264
   125.289   131.854   121.724    98.240    68.032    38.928    17.607     7.840
     9.801    20.500    35.066    48.340    56.278    56.904    50.460    39.121
    26.219    15.307     9.259     9.602    16.216    27.416    40.377    51.816
    58.543    57.992    48.466    29.234     0.619   -35.873   -77.385  -119.718
  -157.736  -186.198  -201.128  -201.016  -187.515  -165.150  -139.963  -117.494
  -100.851   -89.650   -80.321   -67.615   -46.874   -15.846    24.513    70.585
   117.587   161.185   198.415   227.513   246.925   254.378   246.646   220.735
   175.924   115.715    48.477   -14.001   -59.880   -81.367   -77.863   -56.543
   -30.084   -11.984   -11.505   -30.229   -61.699   -94.260  -115.880  -118.864
  -102.543   -72.877   -39.586   -12.048     3.957     7.426     1.024   -11.338
   -26.758   -44.185   -63.556   -83.877  -101.824  -111.753  -107.652   -86.161
   -49.145    -4.301    36.818    62.761    66.437    47.855    13.865   -24.734
   -57.608   -78.689   -87.737   -89.072   -88.344   -89.083   -90.858   -89.862
   -81.663   -64.312   -40.213   -15.539     2.595     9.784     6.879    -0.024
    -2.351     6.781    28.842    58.780    87.010   103.700   103.333    87.280
    63.092    40.802    28.003    26.219    30.246    31.082    20.897    -2.343
   -32.946   -59.372   -69.158   -54.631   -16.719    35.056    86.305   123.716
   140.280   137.455   123.308   107.646    96.612    89.448    79.092    56.430
    15.974   -39.681   -99.170  -146.023  -165.260  -150.042  -105.326   -46.709
     5.235    32.888    28.314    -3.854   -48.679   -87.271  -104.472   -94.707
   -63.661   -25.336     4.013    12.451    -3.407   -37.776   -78.706  -113.040
  -131.101  -129.330  -110.213   -80.083   -46.212   -14.502    11.329    29.437
    39.080    40.286    34.295    24.378    16.178    16.801    32.543    66.048
   114.108   167.598   213.898   241.185   242.915   220.517   182.995   143.390
   113.531    99.368    98.805   103.186   101.606    86.125    55.461    15.461
   -23.804   -52.898   -67.467   -70.097   -68.769   -72.516   -86.485  -108.772
  -130.601  -139.888  -126.593   -87.447   -27.939    39.343    99.141   138.884
   152.629   142.140   114.998    80.968    48.438    22.464     4.909    -3.943
    -3.749     6.486    27.397    57.328    90.760   118.402   129.420   115.185
    72.979     8.006   -67.513  -137.882  -188.956  -212.626  -209.075  -186.033
  -155.502  -129.417  -115.961  -117.749  -132.300  -154.047  -176.803  -195.573
  -207.153  -209.691  -201.843  -182.248  -149.719  -104.057   -47.040    17.091
    81.977   140.314   185.492   213.142   222.115   214.668   195.885   172.550
   151.663   138.930   137.392   146.515   162.022   176.711   182.226   171.431
   140.680    91.192    28.862   -37.491   -98.929  -149.174  -186.242  -212.253
  -231.479  -247.496  -260.759  -267.732  -262.106  -237.598  -191.182  -125.289
   -47.960    29.211    94.565   139.925   162.829   166.699   159.000   148.311
   141.486   141.930   149.388   160.980   172.743   180.912   182.503   175.239
   157.239   126.963    83.710    28.539   -34.855   -99.852  -157.603  -198.678
  -215.266  -203.250  -163.528  -102.166   -29.338    42.651   101.786   138.644
   148.151   130.442    90.686    37.914   -16.940   -63.362   -93.415  -103.190
   -93.209   -67.724   -33.239     3.196    35.358    58.521    69.495    66.333
    48.212    15.746   -28.306   -78.435  -126.470  -162.825  -178.829  -169.523
  -135.839   -85.198   -29.941    16.097    41.798    42.307    20.555   -13.813
   -47.769   -69.301   -71.255   -53.356   -21.792    13.310    41.416    54.845
    50.717    31.193     2.265   -28.236   -52.599   -64.751   -61.133   -41.122
    -7.141    35.489    79.112   114.936   134.876   133.717   110.981    71.652
    25.280   -16.518   -43.478   -49.871   -36.250    -9.079    21.699    46.219
    58.104    56.323    44.919    30.792    20.550    17.791    21.915    28.906
    33.609    32.396    25.073    15.076     7.953     8.803    19.839    39.160
    61.279    79.194    87.119    82.708    67.912    48.067    29.703    17.970
    14.752    18.168    23.588    25.607    20.149     5.779   -16.105   -42.242
   -68.982   -93.591  -114.842  -132.742  -147.704  -159.674  -167.714  -170.288
  -165.977  -154.326  -136.261  -113.862   -89.606   -65.483   -42.441   -20.456
     0.825    21.222    39.541    53.713    61.647    62.358    56.776    47.719
    38.906    33.359    31.914    32.563    31.140    23.087     5.716   -20.050
   -49.258   -74.148   -86.662   -81.311   -57.305   -19.134    24.762    64.601
    92.329   104.044   100.975    88.796    75.622    69.394    75.514    95.314
   125.787   160.348   190.419   207.357   204.312   177.691   127.990    59.861
   -18.604   -97.345  -166.171  -216.759  -244.218  -247.887  -231.137  -200.231
  -162.592  -124.970   -92.013   -65.645   -45.219   -28.417   -12.438     4.901
    24.460    45.623    66.671    85.471   100.270   110.250   115.826   118.429
   119.965   122.078   125.439   129.334   131.723   129.806   120.990   103.896
    79.172    49.656    19.853    -5.181   -21.240   -26.175   -20.523    -7.326
     8.795    22.944    31.323    32.083    25.552    13.780    -0.344   -14.101
   -25.717   -34.720   -41.819   -48.466   -56.181   -65.993   -78.053   -91.533
  -104.806  -115.848  -122.770  -124.324  -120.268  -111.497   -99.798   -87.399
   -76.320   -67.789   -61.893   -57.622   -53.265   -47.060   -37.830   -25.419
   -10.705     4.683    18.865    30.184    37.474    40.078    37.690    30.189
    17.648     0.513   -20.026   -41.828   -61.900   -76.973   -84.423   -83.257
   -74.739   -62.313   -50.682   -44.308   -45.740   -54.505   -66.979   -77.415
   -79.821   -70.054   -47.327   -14.560    22.593    57.640    85.417   103.614
   113.165   117.395   120.344   124.988   132.080   140.019   145.699   145.859
   138.382   122.966   101.063    75.266    48.548    23.731     3.318   -10.431
   -15.510   -10.539     4.556    27.786    54.814    79.521    95.473    97.903
    85.456    60.938    30.621     2.227   -17.658   -25.798   -23.231   -14.564
    -5.970    -2.746    -7.462   -19.404   -35.417   -51.628   -65.128   -74.874
   -81.424   -85.802   -88.208   -87.365   -80.932   -66.851   -44.932   -17.844
     9.159    29.776    38.904    34.631    19.085    -2.265   -22.556   -35.907
   -39.220   -32.730   -19.193    -2.296    14.887    30.606    44.098    54.531
    60.020    57.479    43.650    16.969   -20.621   -62.948  -100.652  -123.880
  -125.716  -104.935   -66.853   -21.707    18.938    46.388    57.923    57.482
    53.617    55.546    68.984    93.503   122.575   146.240   155.236   144.806
   116.535    77.524    37.333     4.122   -18.318   -31.430   -40.431   -51.391
   -68.285   -91.350  -117.376  -141.525  -159.621  -169.696  -172.088  -168.237
  -159.055  -143.922  -121.008   -88.795   -47.984    -2.582    40.628    74.236
    93.105    96.644    89.286    78.782    72.957    76.366    88.303   103.123
   112.675   109.742    90.973    58.050    16.756   -25.466   -62.251   -90.070
  -108.494  -119.052  -123.613  -123.183  -117.707  -106.737   -90.361   -69.658
   -46.350   -21.856     3.496    30.495    60.026    91.476   121.519   144.204
   152.721   142.306   113.031    71.095    27.629    -4.689   -16.094    -3.421
    28.532    68.585   103.105   120.715   115.963    90.689    52.754    13.017
   -18.180   -33.693   -30.764   -10.796    21.683    60.196    97.267   125.256
   137.275   128.505    97.627    47.780   -13.579   -76.292  -130.234  -168.285
  -188.342  -193.520  -190.544  -186.911  -188.149  -196.242  -209.722  -225.079
  -238.556  -247.341  -249.644  -243.862  -227.779  -198.473  -153.455   -92.566
   -19.607    57.413   127.939   182.066   213.988   224.219   219.347   209.437
   203.998   208.236   221.195   236.463   245.033   238.939   214.106   171.377
   115.502    53.080    -9.485   -67.055  -115.683  -151.982  -172.812  -175.905
