CORRECTED ACCELEROGRAM                              CHAN 1
UNCORRECTED ACCELEROGRAM DATA              PROCESSED: 05/09/2011
TARAPACA 2005
01/01/1980 0:00:00 (GMT)                (ORIGIN: 01/01/1980 0:00:00 GMT)
                                   TRIGGER TIME: 1/1/1980 0:00:00.000 GMT
STATION NO.          0.000N    0.000E  SMA-1     S/N  0   (3  CHNS OF 3  AT STA)
IQUIQUE PLAZA S/N 7050
CHAN  1:  L       (STA CHN:  1)               
UNIVERSIDAD DE CHILE - RENADIC
HYPOCENTER:   0.000N    0.000E  H=   0.0KM   ML= 0.00
INSTR PERIOD = 0.0270 SEC,  DAMPING =0.5500,  SENSITIVITY =1.000 VDC/G
                        RECORD LENGTH = 61.715 SEC
                                     UNCOR MAX  = -0.241 G, AT  20.080 SEC
RMS ACCEL OF (UNCOR) RECORD  = 0.033 G
ACCELEROGRAM BANDPASS FILTERED WITH RAMPS AT 0.150-0.250 AND 23.00-25.00 CYC/SEC
 12343 POINTS OF INSTRUMENT- AND BASELINE-CORRECTED ACCEL, VELOC, AND DISPL DATA
AT EQUALLY-SPACED INTERVALS OF   0.005  SEC.
PEAK ACCELERATION =   237.748    CM/SEC/SEC  AT   20.080   SEC.
PEAK   VELOCITY   =    16.017      CM/SEC    AT   19.475   SEC.
PEAK DISPLACEMENT =     3.036        CM      AT   18.895   SEC.
INITIAL VELOCITY  =     0.152   CM/SEC;   INITIAL DISPLACEMENT =    0.012   CM
UNIVERSIDAD DE CHILE - RENADIC



    1    1    1    3    3    0    1    0    0    0    0    0    0    0    0    0
    0    0    0    0    0    0    0    0    0    0    012343   13   22   30    0
    0    0    0    0    0    0    0    0    0    0    0    0    0    0    0    0
    0    0123431234312343    1   10   10    0    0   30   22   10   10    012343
    012343    0    0    0    0    0    0    0    0    0    0    0    0    0    0
    0    0    0    0    0    0    0    0    0    0    0    0    0    0    0    0
    0    0    0    0
     0.027     0.550    61.715     0.033     0.100     1.000    -0.241    20.080
    37.037     0.000     0.000     0.000     5.000     0.000     5.000     5.000
     0.000     0.000     0.000     0.000     0.000     0.000     0.000     0.000
     0.000     0.000     0.000     0.000     0.000     0.000     0.000     0.000
     0.000     0.000     0.000     0.000     0.000     0.000     0.000     0.000
     0.000     0.000     0.000     0.000     0.000     0.000     0.000     0.000
     0.000     0.000     0.000    98.067     0.005    61.715     0.000     0.000
     0.000    25.000     2.000    61.715     0.005     0.250     0.100     0.000
    20.080   237.748    19.475    16.017    18.895     3.036     0.152     0.250
    23.000     0.005     0.005     0.012     0.000     0.000     0.000     0.000
     0.000     0.000     0.000     0.000     0.000     0.000     0.000     0.000
     0.000     0.000     0.000     0.000     0.000     0.000     0.000     0.000
     0.000     0.000     0.000     0.000
12343 POINTS OF ACCEL DATA EQUALLY SPACED AT 0.005 SEC.  (UNITS: CM/SEC/SEC)
[...]
   -12.419   -15.749   -19.734   -24.177   -29.050   -34.287   -39.547   -44.124
   -47.073   -47.548   -45.208   -40.488   -34.585   -29.110   -25.533   -24.622
   -26.134   -28.882   -31.192   -31.551   -29.199   -24.420   -18.413   -12.800
    -8.979    -7.579    -8.230    -9.726   -10.492    -9.165    -5.057     1.657
    10.064    18.859    26.772    32.900    36.850    38.700    38.826    37.710
    35.801    33.472    31.035    28.784    26.999    25.888    25.504    25.662
    25.929    25.693    24.324    21.376    16.756    10.813     4.299    -1.799
    -6.510    -9.143    -9.493    -7.912    -5.235    -2.555    -0.948    -1.189
    -3.574    -7.887   -13.508   -19.617   -25.411   -30.256   -33.735   -35.583
   -35.595   -33.538   -29.172   -22.355   -13.209    -2.254     9.574    21.066
    31.007    38.502    43.193    45.328    45.594    44.811    43.585    42.074
    39.976    36.727    31.850    25.293    17.599     9.839     3.312    -0.867
    -2.131    -0.623     2.895     7.359    11.792    15.625    18.790    21.594
    24.410    27.361    30.122    31.947    31.904    29.225    23.618    15.422
     5.527    -4.872   -14.606   -22.798   -28.989   -33.081   -35.170   -35.373
   -33.731   -30.227   -24.918   -18.058   -10.151    -1.871     6.122    13.399
    19.899    25.904    31.838    37.985    44.210    49.861    53.885    55.161
    52.918    47.086    38.438    28.439    18.860    11.292     6.706     5.257
     6.355     8.978    12.087    14.983    17.466    19.752    22.203    24.988
    27.816    29.884    30.051    27.187    20.572    10.208    -3.081   -17.791
   -32.091   -44.239   -52.985   -57.784   -58.803   -56.741   -52.529   -47.045
   -40.912   -34.457   -27.787   -20.930   -13.987    -7.188    -0.862     4.653
     9.117    12.435    14.639    15.800    15.944    15.016    12.926     9.682
     5.538     1.059    -2.930    -5.558    -6.197    -4.727    -1.656     1.998
     5.010     6.389     5.762     3.554     0.878    -0.852    -0.468     2.463
     7.374    12.791    16.743    17.386    13.614     5.445    -5.936   -18.506
   -29.966   -38.366   -42.591   -42.555   -39.113   -33.701   -27.886   -22.951
   -19.623   -18.001   -17.646   -17.794   -17.599   -16.356   -13.673    -9.563
    -4.440     0.963     5.773     9.209    10.836    10.750     9.633     8.623
     9.003    11.805    17.429    25.449    34.656    43.383    49.985    53.327
    53.097    49.840    44.675    38.841    33.210    27.986    22.676    16.352
     8.088    -2.602   -15.504   -29.692   -43.791   -56.357   -66.260   -72.909
   -76.268   -76.689   -74.663   -70.613   -64.801   -57.383   -48.560   -38.715
   -28.477   -18.644   -10.006    -3.135     1.781     4.975     7.005     8.570
    10.295    12.590    15.611    19.340    23.722    28.790    34.713    41.733
    50.001    59.391    69.349    78.872    86.636    91.258    91.619    87.160
    78.036    65.106    49.719    33.392    17.448     2.750   -10.400   -22.170
   -32.958   -43.094   -52.591   -61.035   -67.658   -71.536   -71.877   -68.251
   -60.720   -49.822   -36.443   -21.625    -6.406     8.286    21.660    33.044
    41.859    47.643    50.105    49.196    45.160    38.523    30.025    20.509
    10.830     1.796    -5.845   -11.401   -14.264   -14.000   -10.494    -4.094
     4.330    13.482    21.907    28.379    32.263    33.733    33.723    33.607
    34.702    37.769    42.694    48.473    53.505    56.102    55.002    49.739
    40.740    29.138    16.417     4.021    -6.943   -15.822   -22.387   -26.712
   -29.056   -29.801   -29.438   -28.564   -27.842   -27.892   -29.139   -31.688
   -35.283   -39.390   -43.385   -46.769   -49.301   -51.014   -52.072   -52.577
   -52.395   -51.120   -48.199   -43.174   -35.937   -26.866   -16.782    -6.719
     2.397    10.032    16.157    21.158    25.576    29.791    33.786    37.086
    38.894    38.358    34.847    28.142    18.480     6.467    -7.070   -21.209
   -34.989   -47.404   -57.398   -63.920   -66.088   -63.420   -56.062   -44.897
   -31.460   -17.636    -5.244     4.392    10.723    14.023    15.189    15.390
    15.671    16.664    18.467    20.722    22.794    24.013    23.866    22.113
    18.832    14.408     9.489     4.905     1.529     0.095     0.973     3.979
     8.307    12.647    15.494    15.581    12.281     5.838    -2.687   -11.744
   -19.785   -25.736   -29.258   -30.718   -30.905   -30.628   -30.384   -30.247
   -29.993   -29.379   -28.410   -27.435   -27.020   -27.667   -29.524   -32.266
   -35.210   -37.642   -39.169   -39.925   -40.508   -41.650   -43.810   -46.881
   -50.196   -52.848   -54.165   -54.095   -53.258   -52.596   -52.746   -53.447
   -53.297   -50.046   -41.399   -25.989    -4.121    22.080    49.228    73.758
    93.075   106.295   114.271   118.875   121.888   123.984   124.283   120.667
   110.739    92.987    67.644    36.876     4.215   -26.503   -52.237   -71.439
   -84.114   -91.299   -94.292   -94.009   -90.785   -84.644   -75.848   -65.358
   -54.914   -46.617   -42.161   -42.058   -45.241   -49.249   -50.996   -47.829
   -38.475   -23.502    -5.132    13.501    29.348    40.306    45.648    45.925
    42.466    36.729    29.802    22.220    14.119     5.563    -3.137   -11.306
   -18.033   -22.463   -24.108   -23.022   -19.757   -15.143    -9.995    -4.902
    -0.164     4.112     7.855    10.930    13.167    14.530    15.318    16.264
    18.427    22.854    30.110    39.864    50.724    60.440    66.453    66.631
    59.946    46.843    29.175     9.711    -8.600   -23.380   -33.329   -38.356
   -39.343   -37.684   -34.773   -31.657   -28.909   -26.720   -25.096   -24.020
   -23.487   -23.405   -23.426   -22.833   -20.584   -15.556    -6.920     5.460
    20.796    37.416    53.113    65.720    73.738    76.798    75.789    72.582
    69.412    68.120    69.499    72.983    76.771    78.371    75.373    66.191
    50.539    29.509     5.259   -19.549   -42.338   -61.057   -74.374   -81.635
   -82.712   -77.848   -67.591   -52.810   -34.728   -14.885     5.023    23.396
    38.975    50.996    59.168    63.520    64.205    61.374    55.194    45.991
    34.406    21.440     8.294    -3.945   -14.667   -23.919   -32.294   -40.523
   -48.922   -56.959   -63.190   -65.646   -62.574   -53.233   -38.402   -20.352
    -2.247    12.800    22.645    26.648    25.624    21.286    15.441     9.326
     3.327    -2.832    -9.625   -17.250   -25.423   -33.517   -40.930   -47.409
   -53.102   -58.229   -62.543   -64.858   -62.990   -54.265   -36.472    -8.916
    26.895    67.284   107.201   141.569   166.647   180.953   185.397   182.637
   175.964   168.150   160.693   153.651   146.011   136.350   123.453   106.701
    86.153    62.434    36.574     9.897   -16.033   -39.513   -58.927   -73.106
   -81.723   -85.511   -86.141   -85.722   -86.060   -87.956   -90.838   -92.923
   -91.862   -85.609   -73.206   -55.117   -33.042    -9.310    13.859    34.896
    53.025    68.009    79.679    87.551    90.701    88.034    78.767    62.921
    41.584    16.807    -8.812   -32.715   -52.906   -68.272   -78.651   -84.675
   -87.518   -88.611   -89.377   -90.961   -93.956   -98.164  -102.480  -105.011
  -103.507   -96.000   -81.509   -60.518   -35.017    -8.041    17.168    38.071
    53.467    63.617    69.795    73.515    75.759    76.548    75.044    70.121
    61.126    48.470    33.762    19.424     7.904     0.852    -1.426    -0.040
     2.916     5.088     4.583     0.444    -7.272   -17.740   -29.820   -42.455
   -54.906   -66.757   -77.759   -87.623   -95.875  -101.843  -104.757  -103.932
   -98.973   -89.919   -77.315   -62.175   -45.847   -29.782   -15.268    -3.166
     6.252    13.313    18.761    23.461    28.060    32.762    37.293    41.082
    43.585    44.602    44.448    43.904    43.943    45.395    48.664    53.620
    59.700    66.118    72.073    76.836    79.698    79.865    76.406    68.380
    55.134    36.664    13.849   -11.592   -37.472   -61.725   -82.975  -100.820
  -115.715  -128.436  -139.396  -148.099  -153.034  -152.084  -143.345  -126.031
  -101.090   -71.269   -40.582   -13.318     7.041    18.653    21.646    17.883
    10.307     2.112    -3.991    -6.220    -3.852     2.922    13.273    26.024
    39.870    53.534    65.883    76.037    83.484    88.185    90.584    91.531
    92.070    93.163    95.400    98.823   102.904   106.716   109.249   109.771
   108.095   104.683   100.498    96.656    93.975    92.585    91.745    89.958
    85.372    76.370    62.112    42.903    20.193    -3.764   -26.501   -45.968
   -60.987   -71.400   -77.864   -81.420   -83.031   -83.252   -82.182   -79.664
   -75.624   -70.352   -64.573   -59.223   -55.021   -51.986   -49.169   -44.722
   -36.370   -22.175    -1.307    25.449    55.701    86.022   112.934   133.989
   148.507   157.713   164.127   170.419   178.127   186.759   193.665   194.800
   186.150   165.305   132.541    91.005    45.853     2.661   -34.276   -63.101
   -84.541  -101.020  -115.136  -128.159  -139.248  -145.704  -144.167  -132.243
  -109.842   -79.644   -46.479   -15.865     7.685    21.945    27.341    26.379
    22.453    18.577    16.573    16.925    19.211    22.751    27.058    31.881
    36.863    41.131    43.119    40.871    32.734    18.170    -1.723   -24.273
   -45.904   -63.181   -73.823   -77.276   -74.677   -68.292   -60.725   -54.241
   -50.435   -50.261   -54.253   -62.700   -75.652   -92.727  -112.914  -134.563
  -155.663  -174.336  -189.326  -200.227  -207.310  -211.009  -211.364  -207.715
  -198.886  -183.843  -162.518  -136.394  -108.489   -82.623   -62.219   -49.072
   -42.643   -40.173   -37.629   -31.121   -18.262     1.049    24.660    48.957
    70.039    84.849    91.867    91.246    84.451    73.652    61.120    48.771
    37.918    29.170    22.450    17.124    12.252     6.988     1.042    -4.963
    -9.440   -10.205    -5.216     6.578    24.644    46.852    70.108    91.456
   109.154   123.233   135.228   147.117   159.933   172.676   182.124   183.734
   173.370   149.180   112.809    69.376    26.141    -9.680   -33.096   -42.709
   -40.740   -31.801   -20.967   -11.989    -6.369    -3.580    -2.215    -1.421
    -1.885    -5.894   -16.409   -35.599   -63.480   -97.304  -131.983  -161.407
  -180.160  -185.002  -175.614  -154.428  -125.723   -94.394   -64.835   -40.259
   -22.516   -12.281    -9.369   -13.001   -21.937   -34.536   -48.846   -62.827
   -74.683   -83.224   -88.116   -89.890   -89.728   -89.062   -89.162   -90.819
   -94.217   -98.989  -104.376  -109.426  -113.162  -114.697  -113.320  -108.579
  -100.363   -88.958   -75.037   -59.555   -43.540   -27.859   -13.027     0.857
    14.008    26.717    39.055    50.652    60.629    67.754    70.792    68.944
    62.243    51.768    39.575    28.343    20.802    19.087    24.224    35.854
    52.358    71.280    89.973   106.251   118.855   127.594   133.132   136.537
   138.748   140.149   140.429   138.709   133.910   125.215   112.457    96.305
    78.195    60.020    43.697    30.698    21.735    16.622    14.393    13.637
    12.941    11.343     8.642     5.458     3.036     2.806     5.904    12.748
    22.859    34.970    47.369    58.347    66.599    71.442    72.840    71.266
    67.561    62.794    58.196    55.074    54.623    57.610    63.987    72.615
    81.304    87.248    87.864    81.694    69.077    52.230    34.628    19.858
    10.351     6.496     6.528     7.233     5.264    -1.542   -13.318   -28.171
   -43.006   -54.804   -61.813   -64.154   -63.635   -62.913   -64.370   -69.261
   -77.405   -87.519   -97.942  -107.387  -115.374  -122.209  -128.600  -135.190
  -142.204  -149.431  -156.419  -162.724  -167.993  -171.825  -173.493  -171.741
  -164.883  -151.287  -130.048  -101.621   -68.007   -32.333     2.090    32.899
    59.495    83.167   106.386   131.479   159.273   188.198   214.341   232.480
   237.748   227.351   201.662   164.315   121.258    79.097    43.394    17.416
     1.769    -5.101    -5.836    -3.002     1.718     7.741    15.262    24.638
    35.896    48.546    61.805    75.052    88.222   101.859   116.721   133.074
   149.997   165.020   174.457   174.306   161.541   135.285    97.429    52.399
     6.116   -35.505   -67.994   -89.229   -99.465  -100.643   -95.252   -85.280
   -71.664   -54.412   -33.267    -8.536    18.357    44.882    68.069    85.478
    96.112   100.824   102.006   102.645   105.101   110.101   116.369   121.026
   120.700   112.814    96.628    73.565    46.703    19.608    -5.037   -26.446
   -45.967   -66.428   -90.732  -120.324  -154.061  -188.005  -216.285  -232.807
  -233.225  -216.497  -185.418  -145.963  -105.535   -70.828   -45.950   -31.482
   -24.745   -21.132   -15.976    -6.261     8.423    25.906    42.426    53.986
    57.638    52.195    38.236    17.540    -7.677   -35.365   -63.839   -91.659
  -117.298  -139.011  -154.997  -163.861  -165.169  -159.788  -149.801  -137.948
  -126.776  -117.860  -111.303  -105.827   -99.317   -89.619   -75.266   -55.901
   -32.265    -5.857    21.555    48.324    73.175    95.185   113.679   128.115
   138.040   143.117   143.168   138.172   128.221   113.441    94.048    70.464
    43.547    14.776   -13.756   -39.635   -60.688   -75.629   -84.528   -88.898
   -91.199   -94.010   -99.042  -106.420  -114.510  -120.378  -120.742  -113.053
   -96.313   -71.368   -40.524    -6.781    27.064    59.067    88.310   114.602
   137.894   157.712   172.892   181.706   182.414   173.918   156.317   131.114
   100.992    69.221    38.904    12.306    -9.517   -26.745   -40.383   -51.711
   -61.675   -70.456   -77.336   -80.896   -79.472   -71.722   -57.136   -36.345
   -11.068    16.182    42.626    65.782    83.904    96.181   102.654   103.916
   100.744    93.755    83.316    69.590    52.780    33.396    12.434    -8.626
   -28.021   -44.050   -55.450   -61.709   -63.141   -60.815   -56.265   -51.105
   -46.637   -43.561   -41.869   -40.935   -39.796   -37.550   -33.682   -28.302
   -22.135   -16.278   -11.800    -9.324    -8.754    -9.267    -9.590    -8.510
    -5.350    -0.304     5.579    10.782    13.927    14.394    12.678    10.323
     9.434    11.897    18.678    29.387    42.361    55.224    65.720    72.487
    75.469    75.791    75.160    75.002    75.780    76.677    75.882    71.328
    61.607    46.692    28.155     8.803    -8.144   -20.053   -25.597   -25.055
   -20.039   -12.837    -5.666    -0.121     2.981     3.387     1.009    -4.442
   -13.482   -26.606   -43.792   -64.038   -85.177  -104.124  -117.521  -122.573
  -117.797  -103.436   -81.355   -54.541   -26.342     0.285    23.293    41.712
    55.499    65.174    71.420    74.741    75.330    73.048    67.556    58.519
    45.825    29.789    11.289    -8.223   -26.858   -42.613   -53.762   -59.304
   -59.244   -54.619   -47.207   -38.987   -31.503   -25.366   -20.066   -14.221
    -6.129     5.472    20.778    38.616    56.606    71.732    81.153    82.982
    76.784    63.643    45.837    26.184     7.349    -8.723   -21.065   -29.625
   -34.954   -37.801   -38.756   -38.094   -35.784   -31.705   -25.897   -18.769
   -11.177    -4.323     0.474     2.085    -0.145    -6.230   -15.499   -26.750
   -38.519   -49.394   -58.294   -64.623   -68.242   -69.284   -67.874   -63.897
   -56.893   -46.214   -31.377   -12.508     9.311    32.009    52.873    69.245
    79.343    82.877    81.225    76.995    73.103    71.706    73.365    76.832
    79.524    78.544    71.813    58.834    40.792    19.908    -1.616   -22.579
   -43.204   -64.773   -88.612  -114.872  -141.709  -165.311  -180.848  -184.054
  -172.809  -148.066  -113.726   -75.479   -39.057    -8.572    14.441    30.946
    43.449    54.594    65.945    77.430    87.587    94.417    96.371    93.052
    85.316    74.844    63.440    52.415    42.348    33.253    25.010    17.761
    12.035     8.537     7.711     9.330    12.369    15.228    16.265    14.373
     9.365     1.981    -6.445   -14.528   -21.292   -26.399   -30.044   -32.642
   -34.488   -35.561   -35.579   -34.232   -31.456   -27.570   -23.210   -19.067
   -15.598   -12.852   -10.511    -8.145    -5.501    -2.685    -0.081     1.949
     3.458     5.147     8.245    14.001    22.961    34.311    45.663    53.467
    53.995    44.612    24.831    -3.263   -35.465   -66.655   -92.341  -109.959
  -119.449  -122.878  -123.292  -123.277  -123.827  -123.973  -121.327  -113.252
   -98.144   -76.257   -49.709   -21.691     4.764    27.870    47.560    65.134
    82.247    99.736   116.845   131.214   139.672   139.506   129.638   111.221
    87.366    62.155    39.312    21.114     7.933    -1.470    -9.093   -16.705
   -25.150   -34.188   -42.862   -50.109   -55.326   -58.565   -60.352   -61.247
   -61.442   -60.600   -58.054   -53.237   -46.127   -37.450   -28.559   -20.988
   -15.904   -13.707   -13.923   -15.427   -16.862   -17.059   -15.286   -11.245
    -4.954     3.421    13.589    25.012    36.691    47.065    54.141    55.920
    51.014    39.238    21.891     1.611   -18.213   -34.320   -44.406   -47.672
