CORRECTED ACCELEROGRAM                              CHAN 1
UNCORRECTED ACCELEROGRAM DATA              PROCESSED: 05/10/2011
TOCOPILLA 2007
11/14/2007 15:40:18 (GMT)               (ORIGIN: 11/14/2007 15:40:18 GMT)
                                   TRIGGER TIME: 11/14/2007 15:41:08.000 GMT
STATION NO.         23.103S   70.446W  ETNA      S/N  279 (4  CHNS OF 4  AT STA)
MEJILLONES S/N 2794
CHAN  1:  EW      (STA CHN:  1)               
UNIVERSIDAD DE CHILE - RENADIC
HYPOCENTER:   0.000N    0.000E  H=   0.0KM   ML= 0.00
INSTR PERIOD = 0.0050 SEC,  DAMPING =0.7000,  SENSITIVITY =1.252 VDC/G
                        RECORD LENGTH =218.000 SEC
                                     UNCOR MAX  = -0.398 G, AT  27.655 SEC
RMS ACCEL OF (UNCOR) RECORD  = 0.028 G
ACCELEROGRAM BANDPASS FILTERED WITH RAMPS AT 0.150-0.250 AND 23.00-25.00 CYC/SEC
 43600 POINTS OF INSTRUMENT- AND BASELINE-CORRECTED ACCEL, VELOC, AND DISPL DATA
AT EQUALLY-SPACED INTERVALS OF   0.005  SEC.
PEAK ACCELERATION =   405.369    CM/SEC/SEC  AT   77.645   SEC.
PEAK   VELOCITY   =    31.548      CM/SEC    AT   75.450   SEC.
PEAK DISPLACEMENT =     8.390        CM      AT   76.010   SEC.
INITIAL VELOCITY  =    -0.004   CM/SEC;   INITIAL DISPLACEMENT =    0.001   CM
UNIVERSIDAD DE CHILE - RENADIC



    1    1    1    4    4    0    1    0    0    0    0    0    0    0    0    0
    0    0    0    0    0    0    0    0    0    0    043600   14   19   30    0
    0    0    0    0    0    0    0    0    0    0    0    0    0    0    0    0
    0    0436004360043600    1   10   10    0    0   30   19   10   10    043600
    043600    0    0    0    0    0    0    0    0    0    0    0    0    0    0
    0    0    0    0    0    0    0    0    0    0    0    0    0    0    0    0
    0    0    0    0
     0.005     0.700   218.000     0.028     0.100     1.252    -0.398    27.655
   200.000     0.000     0.000     0.000     5.000     0.000     5.000     5.000
     0.000     0.000     0.000     0.000     0.000     0.000     0.000     0.000
     0.000     0.000     0.000     0.000     0.000     0.000     0.000     0.000
     0.000     0.000     0.000     0.000     0.000     0.000     0.000     0.000
     0.000     0.000     0.000     0.000     0.000     0.000     0.000     0.000
     0.000     0.000     0.000    98.067     0.005   218.000     0.000     0.000
     0.000    25.000     2.000   218.000     0.005     0.250     0.100     0.000
    77.645   405.369    75.450    31.548    76.010     8.390    -0.004     0.250
    23.000     0.005     0.005     0.001     0.000     0.000     0.000     0.000
     0.000     0.000     0.000     0.000     0.000     0.000     0.000     0.000
     0.000     0.000     0.000     0.000     0.000     0.000     0.000     0.000
     0.000     0.000     0.000     0.000
43600 POINTS OF ACCEL DATA EQUALLY SPACED AT 0.005 SEC.  (UNITS: CM/SEC/SEC)
[...]
   -59.894   -81.967  -102.965  -121.504  -135.768  -143.692  -143.585  -134.938
  -118.971   -98.733   -78.110   -60.652   -48.199   -40.098   -33.378   -23.894
    -8.071    15.443    44.898    75.553   101.264   116.380   117.731   105.808
    84.699    60.839    40.966    30.026    29.756    38.206    50.834    62.108
    67.575    65.481    57.436    47.916    42.750    47.083    63.529    90.925
   124.629   157.632   182.648   194.306   190.734   174.024   149.409   123.468
   102.035    88.356    82.630    82.369    83.850    83.817    80.774    75.391
    69.943    67.120    68.828    75.287    85.290    96.729   107.569   116.514
   123.083   127.097   127.933   124.031   113.107    92.894    62.655    24.126
   -18.147   -57.578   -87.224  -101.824   -99.402   -81.832   -54.084   -22.654
     6.715    30.502    48.047    61.000    71.936    82.759    93.588   102.528
   106.433   102.075    87.726    63.866    33.266     0.243   -30.543   -55.329
   -72.079   -80.695   -82.581   -80.000   -74.985   -68.868   -62.020   -54.044
   -44.264   -32.289   -18.462    -4.038     8.990    18.161    21.330    17.076
     5.129   -13.525   -36.856   -62.275   -87.256  -109.914  -129.340  -145.781
  -160.128  -173.522  -186.700  -199.518  -210.751  -218.259  -219.478  -212.114
  -194.806  -167.813  -133.044   -94.072   -55.615   -22.786    -0.173     9.049
     3.823   -14.476   -42.204   -74.329  -105.411  -131.086  -149.152  -160.083
  -166.685  -172.923  -182.251  -196.004  -212.433  -227.003  -233.511  -226.288
  -202.280  -162.435  -111.784   -58.140    -9.818    26.809    49.102    58.488
    59.680    58.599    60.223    66.995    78.337    91.357   102.318   108.226
   107.920   102.151    93.118    83.291    74.445    67.153    60.901    54.670
    47.647    39.739    31.705    24.784    20.370    19.456    22.382    28.790
    37.730    47.819    57.401    64.724    68.210    66.715    60.057    49.196
    36.214    23.850    14.684    10.204    10.142    12.388    13.618    10.371
     0.458   -16.189   -37.314   -59.008   -77.004   -88.118   -91.295   -87.890
   -81.066   -74.683   -71.856   -74.016   -80.536   -89.082   -96.481   -99.760
   -97.002   -87.798   -73.215   -55.456   -37.185   -20.969    -8.768    -1.624
     0.433    -1.724    -6.613   -12.557   -18.122   -22.528   -25.747   -28.469
   -31.767   -36.641   -43.596   -52.393   -62.069   -71.210   -78.354   -82.412
   -82.871   -79.842   -73.893   -65.799   -56.329   -46.164   -35.928   -26.300
   -18.076   -12.146    -9.295    -9.970   -14.048   -20.758   -28.797   -36.663
   -43.082   -47.397   -49.746   -50.961   -52.179   -54.319   -57.618   -61.414
   -64.300   -64.605   -61.042   -53.257   -42.061   -29.184   -16.697    -6.252
     1.473     6.911    11.229    15.607    20.488    25.142    27.780    26.209
    18.691     4.752   -14.500   -36.644   -58.668   -77.853   -92.416  -101.700
  -105.918  -105.605  -101.251   -93.148   -81.631   -67.449   -52.012   -37.253
   -25.109   -16.840   -12.547   -11.095   -10.715    -9.778    -7.550    -4.450
    -1.700    -0.503    -1.187    -2.780    -3.280    -0.428     7.165    19.426
    34.873    51.420    67.542    83.180    99.893   120.079   145.570   176.378
   209.935   241.657   266.364   280.106   281.583   272.558   257.084   239.934
   224.884   213.738   206.072   200.145   194.070   186.791   178.388   169.668
   161.344   153.339   144.582   133.572   119.022   100.711    79.697    57.930
    37.442    19.536     4.392    -8.752   -21.000   -32.970   -44.647   -55.406
   -64.606   -72.169   -78.787   -85.563   -93.231  -101.378  -108.196  -110.799
  -106.560   -94.244   -74.879   -51.683   -29.039   -10.912     0.591     5.888
     7.453     8.678    12.035    18.102    25.320    30.785    31.628    26.316
    15.307     0.809   -14.198   -26.926   -35.849   -40.684   -42.010   -40.579
   -36.824   -30.822   -22.696   -13.147    -3.761     3.441     6.481     4.524
    -1.571    -9.333   -15.484   -17.165   -13.074    -3.983     7.529    18.318
    25.679    28.551    27.766    25.545    24.456    26.302    31.420    38.633
    45.762    50.723    52.007    49.310    43.411    35.746    27.858    20.995
    15.953    13.154    12.782    15.144    20.350    28.440    39.184    51.983
    65.875    79.629    91.879   101.277   106.563   106.942   101.907    91.657
    77.164    60.131    42.712    27.008    14.477     5.492    -0.818    -5.955
   -11.657   -18.786   -26.762   -33.498   -35.992   -31.411   -18.281     2.699
    28.522    54.874    77.089    91.821    97.932    96.614    90.647    83.108
    76.089    69.959    63.405    54.564    41.889    25.440     7.168    -9.602
   -21.353   -25.721   -22.416   -13.330    -1.837     8.776    16.221    20.231
    22.398    25.283    31.140    40.793    53.161    65.617    74.979    79.090
    77.439    71.743    65.337    61.971    64.410    73.355    87.097   102.022
   113.717   118.654   114.926   103.006    85.353    65.443    46.540    30.662
    18.126     7.802    -2.151   -13.015   -25.163   -37.577   -48.321   -55.349
   -57.328   -54.100   -46.588   -36.209   -24.208   -10.875     4.009    20.877
    39.479    58.246    74.260    83.962    84.376    74.326    55.034    30.119
     4.042   -19.182   -37.376   -50.687   -61.046   -70.857   -81.534   -92.590
  -101.768  -105.765  -102.095   -90.019   -70.997   -48.089   -24.691    -3.238
    15.481    32.066    47.406    61.688    73.191    78.698    74.518    58.078
    29.292    -8.928   -51.296   -91.670  -124.927  -148.078  -161.135  -166.313
  -166.898  -165.949  -165.394  -165.775  -166.561  -166.736  -165.390  -161.728
  -155.522  -146.798  -135.944  -123.835  -111.928  -102.136   -96.364   -95.787
  -100.222  -107.569  -114.545  -117.402  -113.290  -101.345   -83.111   -62.058
   -42.371   -27.487   -19.023   -16.170   -16.593   -17.310   -15.991   -11.791
    -5.487     1.069     5.851     7.523     5.837     1.819    -3.073    -7.325
    -9.927   -10.570    -9.555    -7.503    -5.043    -2.592    -0.337     1.955
     4.453     7.338    10.587    13.853    16.433    17.379    15.773    11.106
     3.588    -5.465   -14.164   -20.375   -22.561   -20.467   -15.415    -9.960
    -6.980    -8.473   -14.616   -23.190   -30.427   -32.049   -24.907    -8.275
    15.646    42.229    65.769    81.203    85.538    78.813    63.613    44.281
    25.453    10.706     1.664    -2.223    -3.263    -4.664    -9.564   -19.931
   -36.266   -57.245   -80.074  -101.168  -117.057  -125.302  -125.176  -117.883
  -106.277   -93.881   -84.098   -79.085   -79.251   -83.325   -88.981   -93.781
   -96.087   -95.586   -93.308   -90.944   -90.310   -92.493   -97.536  -104.539
  -112.110  -118.937  -124.223  -127.811  -130.047  -131.284  -131.782  -131.432
  -129.912  -126.954  -122.593  -117.259  -111.626  -106.291  -101.453   -96.605
   -90.788   -82.800   -71.701   -57.238   -40.052   -21.591    -3.765    11.532
    22.831    29.447    31.353    29.110    23.589    15.725     6.380    -3.703
   -13.871   -23.548   -32.284   -39.753   -45.941   -51.076   -55.558   -59.792
   -64.002   -68.110   -71.739   -74.336   -75.376   -74.454   -71.426   -66.281
   -59.045   -49.720   -38.365   -25.309   -11.423     1.738    12.056    17.342
    15.965     7.550    -6.687   -24.134   -41.499   -55.855   -65.589   -70.875
   -73.425   -75.579   -79.122   -84.271   -89.352   -91.305   -86.878   -74.003
   -52.797   -25.724     3.159    29.576    50.492    65.008    74.381    81.169
    87.904    95.886   104.585   111.891   115.043   111.764   101.206    84.209
    62.945    40.158    18.388    -0.472   -15.184   -24.868   -28.689   -25.877
   -15.970     0.612    22.166    45.726    67.637    84.562    94.530    97.601
    95.863    92.603    91.244    94.105   101.724   112.863   125.173   136.169
   144.132   148.558   150.099   149.935   149.275   148.776   148.454   147.925
   146.836   145.233   143.698   143.178   144.646   148.580   154.897   162.830
   171.181   178.672   184.253   187.293   187.578   185.160   180.186   172.561
   162.090   148.395   131.131   110.254    86.265    60.361    34.397    10.624
    -8.732   -22.193   -29.256   -30.792   -28.857   -26.162   -25.308   -28.009
   -34.590   -43.945   -53.932   -62.338   -67.435   -68.749   -67.136   -64.407
   -62.614   -63.271   -66.800   -72.384   -78.210   -82.258   -82.649   -78.342
   -69.283   -56.289   -40.724   -24.109    -7.790     7.248    20.496    31.651
    40.877    48.502    55.008    60.948    66.857    73.146    80.001    87.341
    94.886   101.978   108.066   112.579   115.097   115.444   113.754   110.492
   106.439   102.579    99.977    99.263   100.792   104.248   108.770   113.215
   116.575   118.382   118.941   119.257   120.709   124.168   129.839   136.669
   142.549   144.871   141.358   130.860   113.814    92.188    68.996    47.127
    28.936    15.406     6.179    -0.028    -4.737    -9.060   -13.316   -17.050
   -19.288   -19.312   -16.557   -11.031    -3.102     6.790    18.342    31.413
    45.810    60.964    75.769    88.288    96.617    99.183    95.481    86.464
    74.464    62.621    53.974    50.522    52.698    58.951    66.752    73.143
    75.777    73.610    67.087    57.819    47.898    39.132    32.597    28.117
    25.029    22.313    19.185    15.425    11.420     7.937     5.762     5.371
     6.833     9.461    12.521    15.088    16.319    15.550    12.331     6.444
    -2.042   -12.684   -24.501   -36.383   -46.719   -54.132   -57.791   -57.729
   -54.907   -50.944   -47.565   -45.950   -46.124   -47.215   -47.222   -44.135
   -36.728   -25.257   -11.669     0.789     8.491     8.572    -0.002   -16.384
   -37.520   -59.440   -78.408   -92.084  -100.213  -104.610  -108.433  -115.022
  -126.595  -143.804  -164.945  -186.854  -205.812  -218.708  -223.955  -221.889
  -214.529  -204.826  -195.584  -188.982  -185.486  -184.281  -183.648  -181.687
  -177.011  -169.179  -158.745  -146.963  -135.196  -124.830  -116.339  -109.606
  -103.953   -98.382   -91.844   -83.433   -72.525   -58.852   -42.482   -24.271
    -5.265    13.012    28.927    41.137    49.006    52.898    54.203    55.033
    57.772    64.014    74.654    89.260   106.343   123.826   139.638   152.241
   160.901   165.665   167.200   166.043   162.888   158.033   151.469   142.999
   132.380   119.454   104.251    87.064    68.625    49.759    31.965    16.878
     6.094     0.801     1.428     7.456    17.493    29.609    41.943    52.793
    61.498    68.013    72.702    75.891    77.479    76.802    72.799    64.416
    51.174    33.130    11.522   -11.834   -34.869   -55.727   -73.122   -86.503
   -96.037  -102.444  -106.706  -110.224  -114.063  -119.135  -125.918  -134.307
  -143.573  -152.488  -159.629  -163.800  -164.338  -161.703  -156.869  -151.350
  -146.610  -143.589  -142.455  -142.678  -143.368  -143.739  -143.367  -142.630
  -141.943  -141.693  -141.729  -141.185  -138.651  -132.652  -122.263  -107.588
   -89.822   -71.326   -54.504   -41.429   -33.164   -29.500   -29.088   -29.918
   -29.945   -27.677   -22.466   -14.917    -6.191     2.052     8.192    11.055
    10.170     5.853    -0.897    -8.652   -15.793   -21.154   -23.802   -23.490
   -20.564   -15.833   -10.360    -5.238    -1.409     0.442     0.006    -2.959
    -8.226   -15.436   -24.066   -33.462   -42.888   -51.590   -58.884   -64.272
   -67.487   -68.854   -68.902   -68.539   -68.778   -70.415   -73.715   -78.197
   -82.635   -85.339   -84.585   -79.428   -69.746   -56.599   -41.870   -27.678
   -15.696    -6.665    -0.299     4.392     8.562    12.711    16.747    19.879
    21.178    20.177    17.283    13.775    11.372    11.579    15.180    21.809
    30.507    40.035    49.489    58.601    67.684    77.316    88.023   100.200
   114.388   131.461   153.065   181.097   216.836   259.760   306.643   351.519
   386.803   405.369   402.932   379.553   340.146   292.931   246.918   209.155
   182.859   167.126   158.262   152.018   145.718   139.132   134.199   133.288
   137.387   145.019   152.522   155.587   151.295   139.625   123.625   107.942
    96.696    91.221    89.157    85.230    73.495    50.064    15.119   -26.724
   -67.875  -100.564  -119.533  -123.869  -116.991  -104.999   -94.129   -88.422
   -88.515   -91.966   -94.787   -93.510   -86.705   -75.593   -63.442   -54.189
   -50.926   -54.855   -65.033   -78.896   -93.216  -105.109  -112.673  -115.249
  -113.234  -107.690   -99.891   -90.938   -81.508   -71.739   -61.285   -49.530
   -35.970   -20.639    -4.443    10.780    22.587    28.609    27.371    18.949
     5.151   -10.863   -25.573   -36.192   -41.569   -42.500   -41.306   -40.847
   -43.343   -49.475   -58.118   -66.707   -72.306   -72.653   -67.001   -56.367
   -43.141   -30.244   -20.170   -14.265   -12.509   -13.677   -16.100   -18.285
   -19.464   -19.784   -20.105   -21.537   -24.911   -30.393   -37.412   -44.742
   -51.125   -55.639   -58.084   -59.065   -59.758   -61.447   -64.992   -70.456
   -77.063   -83.298   -87.661   -89.088   -87.399   -83.380   -78.474   -74.208
   -71.561   -70.550   -70.237   -68.944   -65.197   -58.238   -48.487   -37.502
   -27.463   -20.361   -17.193   -17.493   -19.423   -20.127   -16.930    -8.011
     6.989    26.892    49.412    71.874    91.936   108.062   119.564   126.603
   129.445   128.381   123.560   115.109   103.375    89.105    73.428    57.623
    42.693    29.335    17.447     6.587    -3.703   -13.492   -22.239   -28.881
   -32.208   -31.388   -26.473   -18.272    -8.609     0.428     6.968     9.811
     8.645     3.985    -3.071   -11.142   -18.899   -24.899   -28.149   -27.867
   -23.669   -15.685    -4.617     8.339    21.741    34.262    44.956    53.792
    61.093    67.576    73.859    80.105    85.888    90.331    92.462    91.635
    87.735    81.614    74.389    67.496    62.299    59.893    61.038    66.160
    75.339    88.206   103.696   120.324   135.701   147.265   152.757   150.865
   141.660   126.661   108.417    89.728    72.672    58.361    46.156    34.445
    21.325     5.503   -13.024   -32.773   -51.126   -65.122   -72.493   -72.027
   -64.546   -52.307   -38.466   -26.181   -17.751   -14.043   -14.383   -16.930
   -19.505   -19.983   -17.622   -12.908    -7.468    -3.477    -2.868    -6.648
   -14.556   -25.202   -36.717   -47.026   -55.140   -60.978   -65.317   -69.296
   -73.849   -79.302   -85.337   -91.293   -96.754  -101.464  -106.094  -111.500
  -118.325  -126.536  -135.238  -142.931  -148.092  -149.856  -148.595  -145.451
  -142.585  -141.945  -144.652  -150.578  -158.399  -166.071  -171.503  -173.164
  -170.521  -163.536  -153.122  -140.291  -125.988  -110.923   -95.517   -79.888
   -63.832   -46.816   -28.204    -7.031    16.831    42.708    68.724    91.912
   108.796   116.319   112.826    98.741    76.507    50.477    25.093     4.181
   -10.046   -17.274   -18.735   -16.420   -12.214    -7.289    -2.063     4.033
    11.322    19.914    29.346    38.636    46.549    51.921    53.897    52.010
    46.023    36.331    23.179     7.168   -10.821   -29.634   -47.942   -64.449
   -78.133   -88.446   -95.507   -99.530  -101.352  -101.705  -101.131   -99.868
   -97.849   -94.779   -90.274   -84.016   -76.031   -66.333   -55.725   -45.282
   -36.310   -30.074   -27.462   -28.702   -33.224   -39.729   -46.577   -51.678
   -53.578   -51.213   -44.107   -32.306   -16.254     3.294    25.299    48.438
    71.026    91.667   108.850   121.775   130.483   135.843   139.219   141.911
   144.572   146.870   147.459   144.970   138.081   126.678   112.039    96.563
    83.025    73.624    69.259    69.330    72.059    75.826    79.412    82.997
    87.920    95.920   108.044   123.723   140.453   154.293   160.913   157.451
   142.942   119.136    89.870    59.884    33.397    12.987    -0.884    -9.596
   -15.665   -21.337   -28.456   -37.683   -48.691   -60.520   -71.980   -81.933
   -89.435   -93.787   -94.736   -92.218   -87.152   -81.057   -75.921   -73.690
   -75.625   -81.773   -90.832  -100.497  -108.311  -112.123  -111.285  -106.348
   -98.726   -89.942   -80.936   -71.754   -61.731   -50.036   -36.319   -20.561
    -3.392    14.880    34.721    57.452    84.636   116.923   152.844   188.204
   216.477   230.795   225.717   199.717   156.157   102.726    49.354     5.281
   -23.637   -36.399   -36.659   -30.538   -24.470   -22.484   -25.080   -29.576
   -31.731   -27.882   -16.676     0.298    19.062    35.106    44.683    46.389
    41.402    32.830    24.447    19.359    19.090    23.342    30.321    37.786
    43.422    45.720    44.151    39.109    31.659    23.197    15.112     8.499
     3.867     1.307     0.166    -0.436    -1.277    -2.618    -3.945    -4.016
    -1.249     5.639    16.917    31.668    47.493    61.308    70.191    72.331
    67.669    57.980    46.343    36.168    30.047    29.141    32.568    37.970
    42.311    42.949    38.543    29.517    17.907     6.684    -1.292    -4.040
    -1.346     5.364    13.465    20.005    22.643    20.353    13.656     4.324
