CORRECTED ACCELEROGRAM                              CHAN 1
UNCORRECTED ACCELEROGRAM DATA              PROCESSED: 05/09/2011
TARAPACA 2005
06/13/2005 22:44:14 (GMT)               (ORIGIN: 06/13/2005 22:44:14 GMT)
                                   TRIGGER TIME: 6/13/2005 22:45:04.200 GMT
STATION NO.         18.195S   69.559W  ETNA      S/N  279 (4  CHNS OF 4  AT STA)
POCONCHILE S/N 2798
CHAN  1:  EW      (STA CHN:  1)               
UNIVERSIDAD DE CHILE - RENADIC
HYPOCENTER:   0.000N    0.000E  H=   0.0KM   ML= 0.00
INSTR PERIOD = 0.0050 SEC,  DAMPING =0.7000,  SENSITIVITY =1.251 VDC/G
                        RECORD LENGTH =196.000 SEC
                                     UNCOR MAX  = -0.326 G, AT  28.185 SEC
RMS ACCEL OF (UNCOR) RECORD  = 0.026 G
ACCELEROGRAM BANDPASS FILTERED WITH RAMPS AT 0.150-0.250 AND 23.00-25.00 CYC/SEC
 39200 POINTS OF INSTRUMENT- AND BASELINE-CORRECTED ACCEL, VELOC, AND DISPL DATA
AT EQUALLY-SPACED INTERVALS OF   0.005  SEC.
PEAK ACCELERATION =   317.035    CM/SEC/SEC  AT   78.385   SEC.
PEAK   VELOCITY   =    14.001      CM/SEC    AT   77.860   SEC.
PEAK DISPLACEMENT =     2.867        CM      AT   81.030   SEC.
INITIAL VELOCITY  =    -0.000   CM/SEC;   INITIAL DISPLACEMENT =    0.001   CM
UNIVERSIDAD DE CHILE - RENADIC



    1    1    1    4    4    0    1    0    0    0    0    0    0    0    0    0
    0    0    0    0    0    0    0    0    0    0    039200   13   19   30    0
    0    0    0    0    0    0    0    0    0    0    0    0    0    0    0    0
    0    0392003920039200    1   10   10    0    0   30   19   10   10    039200
    039200    0    0    0    0    0    0    0    0    0    0    0    0    0    0
    0    0    0    0    0    0    0    0    0    0    0    0    0    0    0    0
    0    0    0    0
     0.005     0.700   196.000     0.026     0.100     1.251    -0.326    28.185
   200.000     0.000     0.000     0.000     5.000     0.000     5.000     5.000
     0.000     0.000     0.000     0.000     0.000     0.000     0.000     0.000
     0.000     0.000     0.000     0.000     0.000     0.000     0.000     0.000
     0.000     0.000     0.000     0.000     0.000     0.000     0.000     0.000
     0.000     0.000     0.000     0.000     0.000     0.000     0.000     0.000
     0.000     0.000     0.000    98.067     0.005   196.000     0.000     0.000
     0.000    25.000     2.000   196.000     0.005     0.250     0.100     0.000
    78.385   317.035    77.860    14.001    81.030     2.867    -0.000     0.250
    23.000     0.005     0.005     0.001     0.000     0.000     0.000     0.000
     0.000     0.000     0.000     0.000     0.000     0.000     0.000     0.000
     0.000     0.000     0.000     0.000     0.000     0.000     0.000     0.000
     0.000     0.000     0.000     0.000
39200 POINTS OF ACCEL DATA EQUALLY SPACED AT 0.005 SEC.  (UNITS: CM/SEC/SEC)
[...]
    49.602    49.125    47.690    44.510    38.487    28.564    14.272    -3.861
   -24.123   -43.837   -59.955   -69.868   -72.142   -66.942   -55.943   -41.851
   -27.548   -15.356    -6.521    -1.119     1.656     2.979     3.873     4.873
     5.957     6.647     6.363     4.644     1.350    -3.276    -8.652   -13.980
   -18.403   -21.182   -21.838   -20.327   -16.966   -12.405    -7.427    -2.736
     1.193     4.139     6.025     6.749     6.092     3.700    -0.562    -6.342
   -12.548   -17.408   -18.911   -15.533    -6.991     5.339    18.608    29.206
    34.065    31.710    22.885    10.362    -2.031   -10.776   -13.891   -11.510
    -5.571     1.096     6.162     8.657     9.232     9.605    11.517    15.713
    21.432    26.649    28.974    26.641    19.449     8.789    -2.921   -13.269
   -20.837   -25.682   -29.110   -32.850   -37.998   -44.395   -50.368   -53.437
   -51.329   -43.001   -29.196   -12.305     4.429    18.004    26.642    30.117
    29.717    27.410    24.969    23.290    22.175    20.639    17.565    12.385
     5.532    -1.695    -7.358    -9.651    -7.468    -0.767     9.416    21.262
    32.646    41.626    46.841    47.552    43.835    36.311    25.985    14.048
     1.698    -9.997   -20.197   -28.330   -34.057   -37.360   -38.269   -36.943
   -33.611   -28.580   -22.273   -15.256    -8.216    -1.898     3.045     6.024
     6.827     5.522     2.478    -1.674    -6.113    -9.911   -12.130   -11.954
    -8.807    -2.678     5.972    16.033    25.920    33.867    38.342    38.441
    34.159    26.406    16.807     7.105    -1.079    -6.781    -9.795   -10.573
    -9.940    -8.758    -7.647    -6.869    -6.310    -5.765    -4.826    -3.135
    -0.373     3.719     9.307    16.364    24.543    33.079    40.836    46.303
    48.158    45.483    38.134    26.903    13.437    -0.098   -11.519   -19.166
   -22.255   -21.201   -17.172   -11.810    -6.589    -2.286     1.308     5.305
    11.280    20.603    33.818    50.051    67.266    82.535    92.833    95.860
    90.678    77.944    59.704    38.823    18.313     0.490   -13.170   -22.318
   -27.508   -29.814   -30.380   -30.012   -28.932   -26.750   -22.631   -15.893
    -6.200     5.889    18.892    30.725    39.343    43.500    43.288    40.187
    36.579    34.601    35.423    38.503    41.798    42.658    39.075    30.732
    19.308     7.860    -0.464    -4.027    -3.272    -0.702     0.374    -2.471
    -9.416   -18.028   -24.153   -23.712   -14.564     2.156    22.472    40.796
    52.035    53.406    45.227    30.418    13.032    -3.430   -17.085   -27.940
   -36.770   -44.088   -49.246   -50.422   -45.489   -33.288   -14.636     7.522
    28.966    45.469    54.463    55.570    50.378    41.379    30.701    19.268
     6.791    -7.462   -23.538   -40.216   -54.766   -64.013   -65.628   -59.299
   -47.135   -33.075   -21.509   -15.705   -16.627   -22.880   -31.149   -37.669
   -39.510   -35.429   -25.999   -13.094     0.915    13.884    24.310    31.147
    33.844    31.984    25.341    14.116    -0.773   -17.552   -33.773   -46.817
   -54.512   -55.866   -51.058   -41.405   -28.761   -14.826    -0.590    13.862
    29.119    45.896    64.437    83.909   102.601   118.148   128.277   131.544
   127.826   118.360   105.289    90.880    76.772    63.324    49.876    35.126
    18.009    -1.518   -22.095   -41.162   -55.702   -63.243   -62.680   -54.811
   -41.878   -26.960   -12.973    -1.849     5.844    10.778    14.344    17.976
    22.630    28.345    34.489    39.877    43.211    43.475    40.274    34.055
    26.154    18.620    13.817    13.653    19.070    29.400    42.314    54.303
    61.628    61.448    52.683    36.266    14.689    -9.124   -32.731   -54.964
   -75.855   -95.926  -115.184  -132.404  -145.124  -150.454  -146.361  -132.967
  -112.834   -90.486   -70.907   -57.774   -52.157   -52.259   -54.319   -54.291
   -49.536   -39.942   -27.684   -16.202    -8.565    -6.095    -7.824   -10.970
   -12.178    -8.950    -0.632    11.292    23.941    34.038    39.034    37.815
    30.834    19.767     6.926    -5.303   -14.838   -20.220   -20.636   -16.137
    -7.728     2.664    12.458    18.969    20.123    15.089     4.591    -9.360
   -24.002   -36.745   -45.874   -50.850   -52.101   -50.447   -46.452   -40.044
   -30.564   -17.303    -0.070    20.266    41.713    61.575    77.197    86.730
    89.618    86.612    79.372    69.788    59.483    49.482    40.279    32.116
    25.270    20.143    17.091    16.068    16.312    16.263    13.942     7.577
    -3.637   -19.002   -36.273   -52.168   -63.323   -67.354   -63.656   -53.676
   -40.475   -27.823   -19.057   -16.125   -19.111   -26.374   -35.225   -42.860
   -47.215   -47.473   -44.055   -38.201   -31.338   -24.514   -18.131   -12.044
    -5.950     0.171     5.782     9.849    11.232     9.235     4.048    -3.132
   -10.415   -15.846   -18.106   -16.979   -13.377    -8.890    -5.092    -2.867
    -2.106    -1.897    -1.157     0.608     2.762     3.519     0.501    -8.266
   -23.424   -43.711   -66.114   -86.724  -101.989  -109.877  -110.493  -105.862
   -98.975   -92.416   -87.287   -82.725   -76.387   -65.700   -49.348   -28.382
    -6.396    11.408    19.962    16.313     0.887   -22.291   -46.729   -65.487
   -73.349   -68.314   -51.881   -28.079    -1.750    23.246    44.918    63.109
    78.450    91.020    99.425   100.819    91.933    70.655    37.403    -4.253
   -48.334   -87.931  -117.089  -132.254  -132.776  -120.424   -98.305   -69.764
   -37.822    -5.150    25.337    50.201    65.648    68.405    57.013    32.924
     0.801   -32.302   -58.734   -72.259   -69.878   -52.340   -23.542    11.006
    45.945    77.364   103.185   122.675   135.453   140.765   137.074   122.655
    96.551    59.571    14.798   -32.652   -76.586  -111.071  -131.740  -136.503
  -125.936  -102.783   -71.252   -36.171    -2.246    26.495    47.058    57.698
    57.984    48.947    32.757    12.611    -7.707   -24.350   -34.012   -34.513
   -25.285    -7.613    15.441    39.713    60.632    74.448    79.170    75.086
    64.604    51.408    39.189    30.391    25.399    22.687    19.351    12.460
     0.183   -17.537   -38.999   -61.351   -81.462   -96.677  -105.235  -106.120
   -99.140   -84.664   -63.757   -38.395   -11.540    13.145    32.017    42.400
    43.334    35.979    22.878     7.107    -8.863   -23.808   -37.640   -50.601
   -62.255   -70.850   -73.562   -67.331   -50.519   -23.787     9.727    45.362
    78.562   106.404   128.270   145.291   158.799   168.856   173.098   167.398
   147.583   111.719    61.830     4.137   -52.440   -98.986  -129.445  -142.165
  -140.135  -129.073  -114.882  -101.386   -89.333   -76.986   -61.861   -42.647
   -20.373     1.987    20.609    32.850    38.568    40.352    42.525    49.393
    63.568    85.071   111.486   139.239   164.656   185.155   199.470   207.237
   208.317   202.353   188.874   167.903   140.649   110.073    80.230    55.382
    38.527    30.219    28.183    27.947    24.314    13.118    -7.426   -36.001
   -69.010  -101.659  -129.537  -149.800  -161.588  -165.634  -163.321  -155.685
  -142.876  -124.021   -98.230   -65.356   -26.820    14.219    53.439    86.521
   110.479   124.623   130.719   132.528   134.181   138.898   147.815   159.634
   171.144   178.410   178.156   168.867   151.173   127.759   102.200    78.108
    58.217    43.939    35.396    31.778    31.786    33.946    36.661    38.336
    36.968    30.384    16.451    -6.458   -38.912   -79.994  -127.136  -176.311
  -222.612  -260.756  -286.159  -295.357  -286.488  -259.481  -216.041  -159.488
   -94.464   -26.521    38.376    94.720   137.890   165.004   175.300   170.165
   152.723   127.038    97.165    66.343    36.550     8.855   -16.277   -38.037
   -54.822   -64.306   -64.173   -53.275   -32.727    -6.389    19.595    38.488
    44.704    35.858    13.645   -16.572   -47.452   -72.025   -85.823   -87.995
   -81.059   -69.212   -56.615   -45.589   -36.134   -26.647   -15.476    -2.473
    10.251    18.845    19.282     9.558    -9.106   -31.865   -51.560   -61.005
   -55.430   -34.115    -0.596    38.551    75.776   104.860   122.021   126.317
   118.819   101.378    75.606    42.532     3.013   -41.422   -87.860  -131.655
  -167.245  -189.156  -193.407  -178.593  -146.333  -100.987   -48.790     3.326
    48.876    82.954   102.649   107.495    99.344    81.883    59.801    37.715
    19.090     5.471    -3.735   -10.587   -17.757   -27.119   -38.846   -51.185
   -61.092   -65.491   -62.664   -53.206   -40.137   -27.919   -21.188   -23.070
   -34.175   -52.422   -73.731   -93.274  -106.770  -111.412  -106.216   -91.639
   -69.232   -40.964    -8.919    24.802    58.065    88.742   114.900   135.088
   148.540   155.317   155.892   150.878   140.677   125.446   105.416    81.417
    55.304    29.948     8.631    -5.884   -12.572   -12.641    -9.316    -6.732
    -8.346   -15.516   -26.893   -38.945   -47.492   -49.490   -44.604   -35.450
   -26.668   -23.073   -27.686   -40.519   -58.601   -77.233   -91.875   -99.697
  -100.385   -95.561   -87.476   -77.604   -65.920   -51.256   -32.525   -10.150
    13.132    32.734    43.659    42.620    29.616     8.266   -15.382   -35.119
   -46.932   -50.386   -48.410   -45.473   -45.176   -48.144   -51.391   -49.447
   -36.799   -10.615    27.471    71.305   111.950   140.596   151.344   142.966
   118.889    85.580    50.058    17.567    -9.734   -32.676   -53.801   -75.518
   -98.589  -121.414  -140.441  -151.414  -150.968  -137.961  -114.097   -83.641
   -52.379   -26.125    -9.289    -3.839    -8.971   -21.523   -36.961   -50.637
   -58.917   -59.871   -53.374   -40.664   -23.635    -4.163    16.257    36.487
    55.474    71.988    84.632    92.215    94.346    91.912    87.150    83.080
    82.481    86.781    95.383   105.759   114.345   117.879   114.609   104.770
    90.230    73.350    55.736    37.486    17.360    -6.183   -33.574   -63.088
   -90.759  -111.488  -120.819  -116.816  -101.066   -78.375   -55.231   -37.630
   -29.153   -30.040   -37.546   -47.428   -55.665   -59.977   -60.373   -58.773
   -57.976   -60.519   -67.875   -80.194   -96.471  -114.986  -133.505  -149.496
  -160.189  -162.783  -154.892  -135.157  -103.822   -62.950   -16.108    32.324
    78.256   118.643   151.903   177.807   197.044   210.712   219.999   226.079
   230.120   233.035   235.219   235.906   232.825   222.398   200.703   165.038
   115.553    56.210    -5.462   -60.130   -99.075  -116.924  -113.291   -92.807
   -63.481   -33.960   -10.748     3.631    10.921    15.734    23.515    38.191
    60.763    89.074   118.710   144.524   162.196   169.277   165.557   152.621
   133.336   110.920    88.307    67.702    50.408    36.904    27.136    20.947
    18.539    20.574    28.240    42.540    63.455    89.113   115.439   136.610
   146.349   139.724   114.852    73.628    21.613   -33.631   -84.681  -126.299
  -156.606  -177.021  -191.083  -202.734  -214.762  -228.177  -242.092  -254.620
  -263.686  -267.541  -264.764  -253.940  -233.418  -201.518  -157.206  -101.190
   -36.298    32.507    99.234   158.480   206.934   244.041   271.461   291.485
   305.178   310.893   304.539   280.888   236.047   169.834    87.058    -2.941
   -88.438  -158.402  -205.349  -227.225  -227.098  -211.729  -189.055  -165.821
  -146.094  -130.977  -119.368  -109.202   -98.547   -86.428   -72.621   -57.533
   -41.796   -26.058   -10.966     2.808    14.672    24.426    32.752    41.311
    52.912    70.659    96.906   132.096   174.001   217.741   256.697   284.104
   294.874   286.775   261.229   222.597   176.873   129.974    86.244    47.638
    13.770   -17.287   -47.804   -79.539  -112.841  -146.841  -179.852  -209.994
  -235.698  -255.902  -269.967  -277.477  -278.099  -271.903  -259.337  -241.632
  -220.633  -198.271  -175.727  -152.670  -126.978   -95.254   -54.031    -1.582
    61.061   129.466   196.574   254.372   295.933   317.035   316.779   297.077
   261.433   213.392   156.095    92.215    24.811   -41.829  -101.996  -149.401
  -178.859  -188.137  -179.012  -157.190  -130.275  -105.428   -86.995   -75.428
   -67.913   -60.400   -50.102   -37.248   -25.223   -19.250   -23.568   -39.277
   -63.220   -88.757  -108.081  -115.089  -107.576   -87.833   -61.408   -34.888
   -13.057     2.513    13.593    23.966    37.371    55.693    78.148   101.700
   122.452   137.023   143.970   143.863   138.767   131.195   123.077   115.110
   106.642    95.989    80.995    59.396    29.621    -8.931   -55.377  -107.005
  -159.227  -206.059  -241.190  -259.497  -258.495  -239.458  -207.031  -168.167
  -129.985   -97.547   -72.299   -51.806   -30.923    -3.991    32.798    79.490
   132.257   184.278   227.894   256.951   268.522   263.430   245.471   219.732
   190.756   160.992   130.653    98.112    61.178    18.420   -29.909   -81.643
  -133.134  -180.093  -218.449  -245.215  -258.617  -258.403  -245.776  -223.281
  -194.547  -163.788  -135.006  -111.007   -92.462   -77.679   -62.739   -42.887
   -14.206    24.784    72.300   123.641   172.637   213.662   243.406   261.432
   269.812   271.347   267.749   258.470   240.837   211.477   168.396   112.714
    49.240   -14.687   -71.116  -114.019  -140.832  -152.611  -152.797  -145.296
  -132.848  -116.452   -95.970   -71.644   -45.092   -19.717     0.277    11.607
    13.526     8.420     0.971    -3.819    -2.776     3.985    13.485    21.450
    24.689    22.928    19.155    18.263    24.595    39.574    60.608    81.685
    95.831    97.795    86.145    63.666    35.976     9.070   -13.035   -29.458
   -41.921   -53.043   -64.023   -73.383   -77.065   -70.033   -48.633   -12.634
    33.950    83.627   127.485   157.579   169.072   161.008   135.929    98.578
    54.311     7.828   -37.463   -79.450  -116.906  -149.110  -175.369  -194.969
  -207.142  -211.121  -206.215  -191.944  -168.271  -135.928   -96.705   -53.648
   -10.699    27.871    58.418    78.878    89.412    92.482    92.284    93.662
   100.818   116.091   139.364   167.980   197.401   222.365   238.259   242.312
   234.307   216.546   193.103   168.462   146.157   127.625   111.861    95.943
    76.244    49.890    15.891   -24.475   -68.136  -111.346  -150.775  -184.254
  -210.730  -229.601  -239.881  -239.766  -226.996  -199.970  -159.128  -107.936
   -52.714    -1.297    39.205    64.643    75.117    74.694    69.598    65.566
    65.487    68.313    69.792    64.631    49.219    23.662    -7.779   -38.080
   -60.102   -69.370   -65.779   -53.506   -39.171   -29.063   -26.620   -31.249
   -38.938   -44.342   -43.376   -35.150   -22.394   -10.214    -3.779    -5.954
   -15.947   -29.542   -40.783   -44.332   -37.479   -20.957     1.708    25.903
    47.807    65.603    79.468    90.471    99.034   103.829   101.775    89.225
    63.826    26.210   -19.468   -66.354  -106.946  -135.486  -149.716  -151.246
  -144.435  -134.317  -124.535  -116.125  -107.743   -96.931   -81.855   -62.563
   -41.148   -20.783    -4.153     7.910    16.851    25.720    37.549    53.790
    73.377    92.943   108.054   114.879   111.519    98.470    78.079    53.480
    27.397     1.646   -22.720   -44.805   -63.323   -76.590   -83.160   -82.815
   -77.322   -70.301   -66.284   -68.922   -79.324   -95.218  -111.422  -121.536
  -120.197  -105.002   -77.320   -41.606    -3.858    30.447    57.779    76.949
    88.479    93.431    92.403    85.228    71.440    51.325    26.556     0.396
   -23.078   -40.271   -49.343   -50.833   -47.343   -42.415   -39.140   -38.973
   -41.600   -45.394   -48.505   -49.899   -49.870   -49.848   -51.653   -56.590
   -64.843   -75.259   -85.886   -94.510   -99.263   -98.952   -93.099   -81.815
   -65.680   -45.709   -23.394    -0.524    20.896    39.170    53.306    63.206
    69.489    72.974    74.055    72.312    66.571    55.628    38.913    17.297
    -6.831   -30.161   -49.576   -63.287   -71.471   -76.062   -79.765   -84.547
   -90.703   -96.375   -98.216   -92.740   -77.818   -53.678   -22.982    10.003
    40.734    65.821    83.514    93.744    97.366    95.265    87.783    74.769
    56.181    32.910     7.299   -16.794   -34.991   -43.476   -40.203   -25.556
    -2.229    25.611    53.521    77.878    96.452   108.540   114.263   114.096
   108.423    97.554    82.085    63.354    43.648    25.931    13.052     6.940
     7.609    13.105    19.988    24.425    23.448    15.897     2.671   -13.775
   -30.491   -44.923   -55.762   -62.725   -65.942   -65.136   -59.156   -46.224
   -24.924     4.465    38.925    72.786    98.645   109.644   101.803    75.694
    36.692    -6.456   -44.275   -69.491   -79.192   -75.170   -62.910   -48.965
   -38.331   -32.679   -30.134   -26.625   -18.145    -2.915    17.450    38.459
    54.182    59.659    52.744    34.872    10.442   -14.838   -35.945   -50.051
   -57.068   -58.892   -58.345   -57.623   -57.436   -56.913   -54.230   -47.574
   -35.992   -19.751    -0.179    21.063    42.339    62.519    80.860    96.624
   108.679   115.378   114.864   105.747    87.845    62.850    34.055     5.846
