CORRECTED ACCELEROGRAM                              CHAN 1
UNCORRECTED ACCELEROGRAM DATA              PROCESSED: 05/17/2010
MAULE 2010
01/01/1980 0:00:00 (GMT)                (ORIGIN: 01/01/1980 0:00:00 GMT)
                                   TRIGGER TIME: 1/1/1980 0:00:00.000 GMT
STATION NO.          0.000N    0.000E  QDR       S/N  0   (3  CHNS OF 3  AT STA)
MAIPU S/N 663
CHAN  1:  EW      (STA CHN:  1)               
UNIVERSIDAD DE CHILE - RENADIC
HYPOCENTER:   0.000N    0.000E  H=   0.0KM   MW= 8.8
INSTR PERIOD = 0.0390 SEC,  DAMPING =0.7000,  SENSITIVITY =1.000 VDC/G
                        RECORD LENGTH =167.010 SEC
                                     UNCOR MAX  = -0.478 G, AT  71.620 SEC
RMS ACCEL OF (UNCOR) RECORD  = 0.044 G
ACCELEROGRAM BANDPASS FILTERED WITH RAMPS AT 0.150-0.250 AND 23.00-25.00 CYC/SEC
 16701 POINTS OF INSTRUMENT- AND BASELINE-CORRECTED ACCEL, VELOC, AND DISPL DATA
AT EQUALLY-SPACED INTERVALS OF   0.010  SEC.
PEAK ACCELERATION =   478.602    CM/SEC/SEC  AT   71.610   SEC.
PEAK   VELOCITY   =    38.970      CM/SEC    AT   71.320   SEC.
PEAK DISPLACEMENT =     7.239        CM      AT   71.960   SEC.
INITIAL VELOCITY  =    -0.001   CM/SEC;   INITIAL DISPLACEMENT =   -0.005   CM
UNIVERSIDAD DE CHILE - RENADIC



    1    1    1    3    3    0    1    0    0    0    0    0    0    0    0    0
    0    0    0    0    0    0    0    0    0    0    016701   10   13   30    0
    0    0    0    0    0    0    0    0    0    0    0    0    0    0    0    0
    0    0167011670116701    1   10   10    0    0   30   13   10   10    016701
    016701    0    0    0    0    0    0    0    0    0    0    0    0    0    0
    0    0    0    0    0    0    0    0    0    0    0    0    0    0    0    0
    0    0    0    0
     0.039     0.700   167.010     0.044     0.100     1.000    -0.478    71.620
    25.641     0.000     0.000     0.000    10.000     0.000    10.000    10.000
     0.000     0.000     0.000     0.000     0.000     0.000     0.000     0.000
     0.000     0.000     0.000     0.000     0.000     0.000     0.000     0.000
     0.000     0.000     0.000     0.000     0.000     0.000     0.000     0.000
     0.000     0.000     0.000     0.000     0.000     0.000     0.000     0.000
     0.000     0.000     0.000    98.067     0.010   167.010     0.000     0.000
     0.000    25.000     2.000   167.010     0.010     0.250     0.100     0.000
    71.610   478.602    71.320    38.970    71.960     7.239    -0.001     0.250
    23.000     0.010     0.010    -0.005     0.000     0.000     0.000     0.000
     0.000     0.000     0.000     0.000     0.000     0.000     0.000     0.000
     0.000     0.000     0.000     0.000     0.000     0.000     0.000     0.000
     0.000     0.000     0.000     0.000
16701 POINTS OF ACCEL DATA EQUALLY SPACED AT 0.010 SEC.  (UNITS: CM/SEC/SEC)
[...]
    51.690    35.489    14.032    -4.914   -16.246   -23.817   -36.294   -56.357
   -77.755   -92.543  -100.446  -107.994  -119.323  -130.949  -136.713  -135.576
  -132.346  -131.056  -131.740  -132.563  -133.712  -136.124  -137.539  -132.791
  -118.960   -98.576   -76.797   -56.002   -35.401   -12.959    12.562    40.983
    69.875    94.693   111.936   122.566   130.472   137.839   142.527   141.748
   134.441   119.641    95.818    65.090    36.166    18.725    14.191    15.504
    15.522    14.339    16.078    21.947    28.874    33.415    34.571    33.538
    32.861    36.056    44.792    57.392    70.390    82.357    94.808   108.958
   122.761   131.775   132.092   122.474   103.474    76.710    44.397    10.317
   -19.127   -36.797   -40.041   -33.820   -26.570   -22.092   -18.270   -13.006
    -9.461   -13.109   -25.794   -45.179   -68.288   -91.993  -110.544  -116.760
  -108.856   -93.125   -78.237   -67.230   -56.785   -43.658   -29.832   -20.812
   -19.953   -24.791   -29.185   -27.835   -19.252    -4.459    16.044    42.681
    74.258   106.697   135.503   159.051   178.087   193.152   203.140   206.145
   200.559   185.890   164.408   142.302   127.087   122.114   123.761   125.567
   124.663   123.087   122.576   119.352   105.596    76.775    37.285    -1.762
   -30.769   -47.311   -53.987   -52.411   -41.622   -22.579    -1.821    11.272
    10.190    -6.975   -39.751   -85.664  -136.822  -178.700  -196.361  -184.249
  -150.258  -110.077   -77.225   -57.381   -49.557   -50.562   -57.310   -66.619
   -75.534   -83.057   -90.193   -96.571   -97.559   -87.405   -66.044   -42.472
   -29.662   -36.075   -61.285   -97.428  -132.989  -156.703  -161.773  -149.459
  -127.785  -106.038   -88.704   -74.231   -58.748   -40.632   -22.020    -6.573
     4.383    13.560    26.372    46.389    72.458    99.667   122.994   140.315
   152.968   164.381   177.782   193.067   205.733   208.523   196.847   173.048
   144.875   119.202    97.674    78.935    63.942    56.327    57.926    64.388
    68.007    63.931    52.623    37.283    20.910     5.432    -9.028   -25.678
   -48.174   -75.724  -101.343  -118.333  -128.442  -141.583  -166.698  -203.309
  -241.136  -267.218  -273.262  -260.961  -239.695  -217.038  -190.139  -149.466
   -94.235   -42.340   -19.952   -39.443   -86.996  -133.890  -157.262  -151.564
  -124.858   -88.694   -50.899   -13.804    23.453    59.795    90.343   109.265
   116.910   121.794   133.466   154.068   179.240   206.563   238.781   275.616
   307.468   320.741   311.031   286.417   257.075   225.957   192.290   160.179
   138.225   129.787   128.702   123.884   107.760    80.126    47.515    19.986
     5.132     2.226     3.203    -0.075   -10.044   -27.683   -57.170  -101.511
  -153.571  -196.732  -217.958  -218.761  -211.129  -204.602  -198.606  -188.526
  -174.539  -162.626  -157.784  -158.767  -160.124  -157.311  -147.931  -130.405
  -104.329   -74.801   -51.744   -42.232   -44.228   -49.883   -53.408   -52.842
   -45.649   -28.481    -2.217    24.939    43.556    50.647    50.311    49.169
    53.162    66.211    88.134   113.725   137.870   160.691   186.260   215.650
   243.869   264.206   273.024   269.230   252.100   222.198   184.258   145.217
   109.462    76.790    45.754    18.448     1.151    -0.923     9.285    18.832
    12.974   -13.680   -53.747   -95.629  -134.436  -173.350  -215.300  -255.237
  -280.676  -279.083  -245.405  -185.924  -115.484   -49.268     5.063    48.015
    81.866   104.897   112.155   100.193    70.769    31.421    -5.520   -26.473
   -23.424    -0.050    28.856    45.534    39.444    12.986   -20.204   -44.112
   -51.187   -46.922   -43.716   -50.117   -66.190   -87.317  -108.728  -125.480
  -132.113  -126.299  -111.957   -95.541   -79.267   -60.847   -40.445   -24.699
   -21.246   -29.906   -41.412   -45.125   -37.876   -25.575   -16.815   -14.712
   -14.420    -8.282     6.824    27.512    48.122    66.089    82.454    97.976
   109.174   108.367    89.041    53.452    14.780   -11.426   -21.243   -25.751
   -38.252   -58.816   -74.774   -76.049   -65.343   -51.679   -39.258   -27.521
   -19.770   -22.829   -36.513   -48.899   -47.349   -32.477   -17.029   -11.276
   -12.775    -9.731     8.518    45.505    95.538   143.245   167.957   155.849
   111.840    58.073    17.742    -0.108    -1.560     4.179    13.178    24.064
    32.022    30.153    16.009    -7.556   -38.859   -79.051  -123.885  -155.744
  -152.726  -108.734   -41.778    19.999    58.667    72.644    68.705    55.108
    40.071    30.840    29.173    30.915    32.612    36.769    48.422    67.919
    88.854   102.272    99.829    76.506    33.681   -18.251   -62.912   -86.957
   -88.036   -74.823   -59.591   -49.602   -46.034   -48.666   -60.483   -84.260
  -115.077  -141.001  -154.799  -162.160  -172.833  -183.220  -175.353  -135.657
   -73.142   -14.152    20.571    31.417    34.231    43.593    62.776    86.844
   109.511   127.188   137.684   139.561   134.879   130.941   135.162   145.960
   150.733   137.139   105.918    71.746    48.875    38.205    29.958    17.080
     2.498    -7.036   -10.672   -13.681   -20.590   -29.929   -37.566   -42.090
   -45.079   -47.482   -48.302   -46.750   -43.331   -37.069   -24.638    -3.065
    25.588    54.059    74.303    81.398    74.158    54.605    27.936     1.749
   -18.032   -29.561   -34.094   -32.825   -25.740   -12.956     4.133    22.752
    38.189    44.352    37.027    19.929     4.910     3.661    18.530    42.552
    67.732    90.871   110.958   124.760   127.611   119.380   105.982    94.060
    85.172    76.242    64.978    53.600    47.082    48.686    56.501    64.825
    68.035    63.906    53.591    38.713    19.182    -5.320   -31.828   -53.043
   -61.784   -55.969   -39.484   -18.429     1.975    16.723    20.161     9.416
   -10.589   -27.968   -33.030   -26.471   -18.164   -17.554   -25.972   -37.972
   -48.470   -57.451   -68.553   -84.527  -104.859  -126.145  -143.841  -153.392
  -151.020  -135.243  -108.894   -79.700   -57.631   -49.517   -54.505   -63.608
   -64.827   -50.957   -24.719     2.977    20.666    23.798    16.227     5.626
    -2.122    -4.926    -3.284     1.234     6.534    10.744    13.661    17.321
    24.419    35.861    50.150    65.046    79.603    94.619   111.398   129.819
   146.582   155.068   148.401   124.555    89.241    52.393    21.126    -4.062
   -26.679   -49.433   -72.658   -95.739  -117.403  -134.454  -141.993  -137.609
  -125.126  -113.390  -110.587  -119.358  -136.735  -157.703  -177.970  -193.892
  -200.955  -195.487  -178.245  -155.262  -133.219  -113.770   -93.413   -68.883
   -41.308   -15.113     6.286    21.512    29.831    30.671    25.670    20.643
    23.904    40.140    63.665    77.854    66.515    29.367   -12.551   -30.723
   -11.531    33.918    80.921   110.435   118.663   112.612   102.222    95.023
    94.331    98.322   101.328    98.318    89.179    78.531    71.547    69.774
    71.799    75.569    80.151    84.398    84.688    75.626    54.501    25.238
    -2.871   -21.480   -27.045   -20.653    -4.786    18.003    44.366    70.220
    92.353   109.475   121.561   128.060   128.103   120.505   104.757    82.086
    55.983    31.548    14.057     7.391    12.169    23.443    32.489    31.840
    20.841     4.832   -11.087   -25.914   -40.154   -51.879   -57.273   -54.514
   -43.912   -26.622    -4.521    17.850    33.583    37.086    27.311     7.816
   -14.899   -34.008   -44.727   -47.241   -45.266   -41.423   -35.141   -26.053
   -17.799   -16.190   -23.571   -36.940   -50.343   -59.394   -63.083   -63.966
   -66.949   -75.739   -88.978  -100.821  -106.416  -106.722  -106.160  -107.839
  -111.178  -113.567  -112.328  -105.306   -91.863   -74.419   -57.620   -44.899
   -35.126   -24.638   -11.241     4.403    21.132    39.364    59.890    81.625
   102.167   120.017   135.199   145.608   145.294   128.856    98.378    64.211
    37.411    21.966    14.974    11.983    10.206     6.495    -3.227   -20.808
   -43.770   -67.834   -90.113  -108.634  -121.035  -127.068  -130.614  -136.001
  -141.107  -138.139  -123.595  -104.885   -93.522   -92.269   -92.051   -82.374
   -61.806   -37.488   -16.045     2.144    20.269    39.703    58.987    76.777
    93.302   108.073   118.306   121.011   116.509   107.884    96.832    82.111
    63.377    44.938    33.374    31.227    34.750    37.982    38.071    36.032
    33.539    30.335    24.767    15.909     4.503    -8.183   -21.858   -37.110
   -53.809   -70.293   -84.470   -95.268  -102.765  -107.626  -111.057  -114.587
  -118.896  -122.734  -123.541  -118.672  -105.657   -82.639   -50.575   -14.938
    16.795    40.597    57.894    72.063    83.825    90.925    91.401    86.091
    78.409    72.769    73.137    81.929    98.476   118.112   132.723   134.474
   121.743   102.253    88.437    87.463    95.327   101.359    97.588    84.073
    66.295    49.718    36.751    26.978    19.224    13.930    13.705    21.091
    34.964    50.693    63.373    70.293    70.300    62.693    48.333    31.110
    16.537     8.789     8.917    16.557    31.074    50.382    69.268    80.579
    79.410    66.531    47.444    28.276    11.636    -2.752   -15.040   -23.179
   -23.945   -15.942    -2.067    10.669    14.682     7.412    -6.944   -20.774
   -29.579   -34.422   -38.502   -43.186   -48.315   -54.605   -63.430   -73.888
   -83.013   -88.006   -87.965   -82.867   -73.113   -61.524   -54.151   -56.578
   -69.107   -86.137  -101.339  -111.225  -115.745  -117.446  -120.750  -129.489
  -142.789  -154.207  -157.152  -150.859  -140.907  -132.545  -126.198  -119.242
  -110.432  -101.241   -93.882   -89.500   -87.955   -87.104   -83.055   -71.176
   -49.602   -21.514     6.533    28.927    43.896    52.788    57.561    60.173
    62.626    67.436    75.916    86.867    97.475   105.353   109.359   109.148
   105.076    99.109    93.633    90.229    89.144    90.631    95.574   103.793
   112.308   116.387   112.296    99.347    79.353    56.906    38.693    30.461
    32.633    39.260    42.519    38.694    29.693    19.843    11.089     2.285
    -8.740   -22.435   -36.455   -47.044   -52.036   -53.231   -55.842   -64.231
   -77.836   -89.871   -91.650   -78.988   -55.045   -26.911     0.441    26.614
    52.769    77.937    98.542   111.979   118.818   121.580   122.021   120.021
   114.714   106.277    96.526    87.793    79.924    68.978    49.448    19.250
   -17.731   -54.915   -88.627  -119.386  -147.951  -171.879  -187.540  -193.753
  -192.349  -185.961  -177.426  -171.080  -171.478  -178.625  -185.637  -183.258
  -167.242  -140.206  -107.572   -74.067   -44.330   -23.546   -14.222   -12.840
   -12.553   -10.102    -8.535   -11.693   -17.410   -17.919    -6.841    15.452
    43.104    69.460    89.678   100.391    99.387    86.781    66.260    44.469
    28.448    22.565    26.893    38.298    53.284    69.832    87.074   104.236
   120.813   136.416   148.400   149.908   133.373    98.646    57.304    26.479
    17.008    26.424    42.766    54.275    56.349    51.478    44.287    36.855
    28.132    16.501     1.962   -14.947   -34.193   -54.389   -70.722   -78.006
   -77.329   -77.326   -85.880  -101.182  -113.018  -114.068  -107.088   -99.901
   -95.422   -89.590   -78.718   -65.212   -53.380   -41.351   -20.205    16.409
    63.779   108.703   140.432   158.477   170.726   185.911   207.892   234.302
   259.365   277.867   288.747   294.615   297.086   293.275   278.438   252.129
   220.342   190.606   166.599   146.974   129.046   112.306    98.733    90.046
    84.212    74.918    56.204    28.047    -3.298   -32.776   -62.221   -97.342
  -140.203  -187.225  -234.238  -280.427  -325.783  -367.087  -397.908  -413.861
  -416.598  -413.525  -413.559  -421.577  -435.322  -447.318  -449.402  -435.301
  -399.631  -339.842  -260.156  -169.663   -71.194    45.254   188.321   339.847
   451.446   478.602   423.501   337.940   280.693   272.938   294.799   316.559
   324.938   323.667   322.319   329.657   349.764   373.922   380.227   349.991
   286.127   209.931   139.311    76.432    18.068   -30.865   -60.409   -69.974
   -71.775   -80.346  -102.889  -139.188  -185.560  -237.321  -291.110  -346.683
  -402.060  -446.530  -462.016  -436.455  -375.375  -298.486  -226.317  -171.392
  -138.191  -125.686  -127.841  -136.606  -145.703  -150.395  -143.836  -118.230
   -72.963   -19.400    26.198    54.051    64.032    58.621    39.285    11.808
    -9.453    -9.184    15.175    49.698    75.352    81.907    72.099    55.194
    40.311    33.505    36.320    44.998    53.087    56.990    58.932    63.594
    73.203    85.471    96.090   101.850   101.638    95.234    81.717    59.944
    31.521     2.158   -21.671   -39.269   -56.945   -82.221  -118.022  -162.659
  -211.741  -256.473  -282.489  -277.537  -243.334  -197.689  -160.385  -136.878
  -117.019   -88.447   -48.706    -4.889    34.763    66.233    89.022   103.325
   110.457   114.935   123.752   141.734   167.525   194.963   218.496   236.468
   250.179   261.705   273.919   289.205   303.990   305.143   277.165   216.947
   140.458    71.987    26.405     1.646   -13.370   -26.670   -39.010   -48.375
   -55.738   -65.541   -80.923   -99.592  -115.688  -126.431  -134.789  -143.818
  -149.944  -145.161  -125.933   -96.676   -63.501   -28.424     7.157    35.386
    43.041    20.836   -29.148   -93.132  -149.093  -172.390  -146.322   -74.120
    19.940   105.644   165.858   201.949   223.536   236.210   238.666   227.606
   202.429   165.957   122.677    77.073    33.162    -4.791   -31.657   -42.422
   -34.851   -12.266    15.613    35.666    38.189    23.727     3.130   -10.732
   -12.189    -4.240     7.178    18.096    26.553    31.397    32.779    32.563
    32.174    30.057    21.364    -0.332   -39.662   -93.935  -149.133  -184.522
  -186.586  -160.193  -125.703  -104.441  -105.681  -123.835  -144.372  -153.068
  -143.742  -119.908   -89.891   -60.900   -38.645   -29.020   -34.196   -45.844
   -47.682   -29.768     0.673    26.001    35.154    32.560    31.385    41.623
    64.531    94.218   121.810   140.112   147.736   149.818   153.245   160.796
   169.003   171.201   162.643   144.055   121.441   102.094    89.405    80.695
    69.482    50.909    25.723    -0.149   -20.681   -35.758   -52.435   -79.316
  -118.854  -164.168  -202.518  -221.326  -214.549  -187.410  -155.241  -133.673
  -127.058  -127.303  -124.461  -115.715  -103.337   -87.632   -67.235   -45.093
   -29.232   -26.110   -35.575   -52.411   -69.432   -77.989   -70.058   -43.093
    -2.779    40.313    75.653    95.048    95.314    82.694    71.576    73.457
    86.500    99.886   107.244   111.678   117.938   125.821   133.786   143.357
   154.323   158.434   144.178   109.809    67.369    32.178    10.721     0.278
    -2.699     2.235    16.105    35.679    53.697    63.895    64.380    56.471
    41.454    19.625    -7.163   -32.810   -48.802   -50.734   -43.986   -40.727
   -49.408   -66.802   -81.942   -88.096   -88.734   -90.312   -91.340   -81.723
   -53.613   -10.622    33.604    64.530    74.924    67.153    49.048    26.175
    -2.355   -38.152   -73.548   -91.208   -78.353   -40.433     2.272    31.119
    40.211    33.974    20.050     6.261    -1.154    -1.093     1.146    -0.863
    -8.410   -18.044   -26.715   -34.100   -40.737   -46.625   -52.159   -58.069
   -64.263   -70.260   -76.695   -83.951   -88.584   -83.657   -64.687   -34.197
     0.394    31.505    51.789    52.649    28.266   -16.192   -63.125   -93.055
   -97.559   -81.542   -55.187   -26.813    -3.026     9.982    10.364     4.898
     4.708    14.803    30.028    42.796    52.044    61.874    73.149    80.901
    80.783    74.492    66.669    58.780    48.670    34.829    18.265     0.776
   -15.914   -29.209   -36.756   -39.619   -42.169   -47.487   -54.716   -62.025
   -69.469   -76.012   -75.890   -62.779   -38.717   -15.535    -4.894    -7.995
   -16.337   -21.127   -20.250   -17.314   -16.727   -20.638   -29.279   -42.532
   -59.930   -78.366   -90.372   -87.093   -65.361   -31.918     0.977    25.019
    40.806    53.931    67.687    80.278    88.179    90.741    90.915    91.779
    93.437    94.183    94.195    96.127   101.101   105.707   104.787    96.208
    81.010    59.808    32.674     3.269   -20.487   -32.728   -35.248   -34.523
   -34.075   -32.056   -25.622   -15.445    -5.706    -1.719    -7.425   -22.393
   -39.818   -49.421   -44.739   -28.053    -7.713     8.732    19.321    27.708
    39.782    58.762    81.422    99.084   103.697    93.430    72.846    48.744
    26.948    11.166     2.130    -2.269    -3.864    -1.101     8.617    22.669
    32.464    31.206    21.514    12.798    11.307    14.582    15.451     9.477
    -1.757   -12.712   -17.868   -15.662    -9.826    -6.368    -8.132   -12.726
   -16.348   -18.411   -21.033   -25.277   -30.085   -35.436   -43.593   -55.677
   -68.415   -76.448   -77.654   -74.410   -69.278   -61.499   -49.028   -33.729
   -21.921   -18.257   -19.378   -15.397     0.997    27.328    54.323    75.561
